{"type":"FeatureCollection","features":[{"type":"Feature","properties":{"name":"ROUTE 1 of 4 · Days 1-2 · Saint-Dalmas → Col du Barn → Col de Salèse · ALWAYS ON","color":"#C8322B","kind":"route"},"geometry":{"type":"LineString","coordinates":[[7.20128,44.06802],[7.20148,44.06893],[7.20189,44.06983],[7.20201,44.07079],[7.20173,44.07164],[7.20194,44.07262],[7.20188,44.07268],[7.20152,44.07261],[7.20145,44.07267],[7.20184,44.07286],[7.20207,44.07285],[7.20228,44.07275],[7.20217,44.07322],[7.20204,44.07323],[7.20203,44.07348],[7.20196,44.07344],[7.20203,44.07431],[7.20195,44.07493],[7.20181,44.07523],[7.20205,44.07638],[7.2019,44.0775],[7.20247,44.07754],[7.20261,44.07785],[7.2025,44.07778],[7.20239,44.07782],[7.20271,44.07842],[7.20261,44.07859],[7.20269,44.07923],[7.2028,44.07952],[7.20311,44.0799],[7.20299,44.08004],[7.20252,44.08035],[7.20191,44.08063],[7.20164,44.08065],[7.2015,44.0808],[7.20164,44.08139],[7.20156,44.08149],[7.20162,44.08183],[7.20134,44.08214],[7.20088,44.08236],[7.20054,44.08244],[7.20037,44.08278],[7.20014,44.08305],[7.20024,44.08335],[7.20015,44.08363],[7.19943,44.08405],[7.19938,44.08418],[7.19893,44.08424],[7.19862,44.08438],[7.19838,44.08457],[7.19825,44.08493],[7.19804,44.08494],[7.1979,44.08519],[7.19813,44.08567],[7.19803,44.08572],[7.1981,44.08599],[7.19826,44.08618],[7.19832,44.0865],[7.19813,44.08667],[7.19814,44.08676],[7.19818,44.08682],[7.19855,44.08687],[7.19859,44.08693],[7.19778,44.08746],[7.19804,44.08773],[7.19759,44.08801],[7.19759,44.08806],[7.19805,44.08825],[7.1973,44.08884],[7.19726,44.08913],[7.19705,44.08942],[7.19644,44.08948],[7.19622,44.08957],[7.196,44.0898],[7.19546,44.09002],[7.19513,44.09028],[7.19485,44.09041],[7.19411,44.09048],[7.19365,44.09059],[7.19342,44.09053],[7.19322,44.09027],[7.19271,44.09086],[7.19232,44.09153],[7.19216,44.09155],[7.19161,44.09221],[7.19137,44.09273],[7.19131,44.09325],[7.19094,44.09318],[7.19061,44.09354],[7.19029,44.09374],[7.18993,44.09433],[7.18969,44.09456],[7.18943,44.09506],[7.18913,44.09528],[7.18899,44.0956],[7.18857,44.09591],[7.18848,44.09611],[7.18814,44.09647],[7.1879,44.09653],[7.18778,44.0965],[7.18705,44.09687],[7.18691,44.0968],[7.18692,44.09695],[7.18639,44.09692],[7.18664,44.09715],[7.18663,44.09739],[7.18622,44.09728],[7.18595,44.09712],[7.186,44.09768],[7.18631,44.09817],[7.18629,44.09829],[7.18687,44.09871],[7.18719,44.09877],[7.18752,44.09907],[7.18743,44.10015],[7.18774,44.10037],[7.18805,44.10042],[7.1883,44.10001],[7.18845,44.09993],[7.1891,44.10044],[7.18918,44.10044],[7.18928,44.10083],[7.18921,44.1011],[7.18932,44.10121],[7.1894,44.10151],[7.18933,44.10203],[7.18938,44.10224],[7.18919,44.10221],[7.18936,44.10261],[7.18924,44.1026],[7.18931,44.10272],[7.18897,44.10263],[7.18916,44.10302],[7.18897,44.10325],[7.18894,44.10359],[7.18904,44.10375],[7.18875,44.10367],[7.1884,44.10343],[7.18839,44.10368],[7.1883,44.10379],[7.18839,44.10388],[7.18821,44.10396],[7.18869,44.10421],[7.18902,44.10451],[7.18926,44.10457],[7.19003,44.10511],[7.19011,44.10475],[7.19038,44.10466],[7.19046,44.10512],[7.19072,44.10511],[7.19085,44.10534],[7.19085,44.10569],[7.19133,44.10623],[7.19175,44.10772],[7.19245,44.10876],[7.19249,44.10889],[7.19217,44.10958],[7.19223,44.10981],[7.19245,44.11012],[7.19266,44.1102],[7.19301,44.11062],[7.19324,44.11065],[7.19357,44.11094],[7.19369,44.11078],[7.19414,44.11091],[7.19402,44.11103],[7.19411,44.11168],[7.19401,44.11209],[7.19456,44.11323],[7.19446,44.11358],[7.19457,44.1139],[7.19453,44.11428],[7.19434,44.11438],[7.19438,44.11465],[7.19424,44.11477],[7.19435,44.11484],[7.19423,44.11491],[7.19416,44.11506],[7.19417,44.11532],[7.19424,44.11548],[7.19451,44.11567],[7.19479,44.11615],[7.19494,44.11706],[7.19501,44.11711],[7.19497,44.11716],[7.19553,44.11721],[7.19578,44.11711],[7.19602,44.11712],[7.19618,44.11727],[7.19622,44.11744],[7.19661,44.11781],[7.19723,44.11793],[7.1976,44.11789],[7.19773,44.11793],[7.19758,44.11802],[7.19778,44.11803],[7.1979,44.11797],[7.19862,44.11791],[7.19886,44.11777],[7.1995,44.11763],[7.19967,44.11761],[7.19962,44.11771],[7.20001,44.1175],[7.2013,44.117],[7.20186,44.11688],[7.20169,44.11704],[7.20186,44.11703],[7.20155,44.11732],[7.20145,44.11752],[7.20148,44.11758],[7.20159,44.11745],[7.20165,44.11752],[7.20173,44.1175],[7.20168,44.11764],[7.20176,44.11783],[7.20184,44.11769],[7.2019,44.11776],[7.20202,44.11755],[7.20206,44.11765],[7.20226,44.1175],[7.20223,44.11765],[7.20246,44.11811],[7.20273,44.11829],[7.20273,44.11802],[7.2028,44.1179],[7.20286,44.11792],[7.20355,44.11859],[7.20391,44.11879],[7.20386,44.11905],[7.20396,44.11907],[7.20392,44.11914],[7.204,44.11913],[7.20401,44.11921],[7.20412,44.1191],[7.20438,44.119],[7.20438,44.11928],[7.20444,44.11926],[7.20449,44.1193],[7.20457,44.11923],[7.2049,44.11949],[7.20505,44.11944],[7.20533,44.11952],[7.20534,44.11972],[7.20544,44.11972],[7.20531,44.11997],[7.20553,44.12039],[7.20558,44.12069],[7.20591,44.12048],[7.20603,44.12082],[7.20615,44.12072],[7.20623,44.12092],[7.2062,44.12119],[7.20605,44.12142],[7.20638,44.12162],[7.20666,44.12211],[7.20692,44.12215],[7.2069,44.12225],[7.20654,44.12269],[7.20631,44.12279],[7.2064,44.12301],[7.20686,44.12305],[7.20642,44.12331],[7.20676,44.12355],[7.20686,44.12347],[7.20715,44.12344],[7.20747,44.12326],[7.20765,44.12322],[7.20772,44.12325],[7.20764,44.12352],[7.20782,44.12358],[7.20791,44.12373],[7.20769,44.12375],[7.20764,44.12389],[7.20713,44.12441],[7.20683,44.12481],[7.20677,44.1251],[7.20662,44.12507],[7.20657,44.12539],[7.20664,44.1255],[7.2065,44.12549],[7.20666,44.1259],[7.20637,44.1257],[7.20639,44.12607],[7.20614,44.12592],[7.20613,44.12599],[7.20597,44.12604],[7.20577,44.12625],[7.20536,44.12649],[7.20492,44.12707],[7.20494,44.12732],[7.20507,44.12757],[7.20498,44.12772],[7.20502,44.12787],[7.20492,44.12819],[7.20494,44.12842],[7.2047,44.12896],[7.20464,44.12947],[7.20502,44.12988],[7.20498,44.13041],[7.20513,44.13068],[7.20493,44.13088],[7.20504,44.13126],[7.20491,44.13143],[7.20493,44.1317],[7.20509,44.13209],[7.205,44.13222],[7.20497,44.13279],[7.20478,44.13316],[7.20496,44.13361],[7.20519,44.13384],[7.20517,44.1343],[7.20558,44.13527],[7.20679,44.13659],[7.20713,44.13764],[7.2073,44.13772],[7.2074,44.13759],[7.20768,44.13773],[7.20781,44.13822],[7.20816,44.13856],[7.208,44.13864],[7.2085,44.13907],[7.20919,44.13933],[7.20951,44.13963],[7.20975,44.13973],[7.20985,44.13983],[7.20982,44.13993],[7.2101,44.14027],[7.20997,44.1404],[7.21056,44.14088],[7.21069,44.14097],[7.21137,44.14112],[7.21147,44.1414],[7.21189,44.14148],[7.21209,44.14167],[7.21229,44.14159],[7.2128,44.14178],[7.21352,44.1418],[7.21401,44.14173],[7.21488,44.14135],[7.21542,44.14136],[7.21577,44.14149],[7.21588,44.1414],[7.21628,44.14141],[7.2168,44.14124],[7.21699,44.1411],[7.21754,44.14111],[7.21828,44.14101],[7.21995,44.14055],[7.22051,44.14052],[7.22096,44.14057],[7.22216,44.14012],[7.22242,44.1401],[7.22313,44.14034],[7.22381,44.14079],[7.22437,44.141],[7.22475,44.14095],[7.22565,44.14069],[7.22675,44.14072],[7.22788,44.1406],[7.22915,44.14098],[7.22934,44.14119],[7.22942,44.14121],[7.22953,44.14114],[7.23015,44.14129],[7.23049,44.14128],[7.23121,44.14079],[7.23148,44.14041],[7.23278,44.13938],[7.23292,44.13913],[7.23293,44.13883],[7.23351,44.13878],[7.23511,44.13832],[7.23555,44.13788],[7.23573,44.1378],[7.23558,44.13762]]}},{"type":"Feature","properties":{"name":"ROUTE 1 of 4 · Days 1-2 · Saint-Dalmas → Col du Barn → Col de Salèse · ALWAYS ON","color":"#C8322B","kind":"route"},"geometry":{"type":"LineString","coordinates":[[7.20128,44.06802],[7.20101,44.06669]]}},{"type":"Feature","properties":{"name":"ROUTE 2 of 4 · Days 2-3 · Le Boréon → Trécolpas → Pas des Ladres · ALWAYS ON","color":"#C8322B","kind":"route"},"geometry":{"type":"LineString","coordinates":[[7.25351,44.1281],[7.25293,44.12844],[7.25224,44.12854],[7.25226,44.12861],[7.25258,44.12864],[7.25258,44.12872],[7.25204,44.12886],[7.25163,44.12918],[7.25105,44.12935],[7.24997,44.12982],[7.24971,44.13012],[7.24925,44.13026],[7.24912,44.13051],[7.24894,44.13067],[7.24833,44.13087],[7.24759,44.1313],[7.24698,44.1319],[7.24623,44.13244],[7.2455,44.13276],[7.24466,44.13292],[7.2431,44.13347],[7.24272,44.13372],[7.24195,44.13444],[7.24164,44.13461],[7.24117,44.13478],[7.23961,44.13472],[7.23848,44.13524],[7.23798,44.13555],[7.23753,44.1356],[7.23608,44.13605],[7.23567,44.13642],[7.23524,44.13666],[7.23486,44.13665],[7.23412,44.13648],[7.23371,44.13645],[7.23332,44.13678],[7.23362,44.13736],[7.23381,44.13741],[7.23424,44.13734],[7.2346,44.13757],[7.23541,44.13754],[7.23558,44.13762],[7.23573,44.1378]]}},{"type":"Feature","properties":{"name":"ROUTE 2 of 4 · Days 2-3 · Le Boréon → Trécolpas → Pas des Ladres · ALWAYS ON","color":"#C8322B","kind":"route"},"geometry":{"type":"LineString","coordinates":[[7.25351,44.1281],[7.25367,44.12789],[7.25448,44.12754],[7.25452,44.12719],[7.25483,44.12712],[7.25497,44.12718],[7.25563,44.12715],[7.25702,44.12687],[7.25741,44.1267],[7.25768,44.12646],[7.25778,44.1262],[7.25802,44.12609],[7.25924,44.12631],[7.25954,44.12629],[7.25997,44.12615],[7.25982,44.12601],[7.26017,44.12582],[7.26129,44.12569],[7.26171,44.12554],[7.26236,44.12556],[7.26342,44.1254],[7.2644,44.12505],[7.26447,44.12493],[7.26471,44.12494],[7.26512,44.12481],[7.26665,44.12415],[7.26691,44.12402],[7.26708,44.12382],[7.26734,44.12374],[7.26779,44.12327],[7.26846,44.12299],[7.2687,44.12306],[7.26921,44.12287],[7.26961,44.12264],[7.27046,44.12193],[7.27084,44.12221],[7.27144,44.12214],[7.27175,44.12188],[7.27221,44.12128],[7.27325,44.12063],[7.27412,44.11997],[7.2746,44.11995],[7.27495,44.11986],[7.27512,44.11942],[7.27525,44.1193],[7.27538,44.11928],[7.2758,44.1194],[7.27603,44.11933],[7.27619,44.11882],[7.27666,44.11871],[7.27743,44.11797],[7.27809,44.11753],[7.27829,44.11724],[7.27889,44.11703],[7.27898,44.11667],[7.27937,44.11623],[7.2802,44.11569],[7.28084,44.1157],[7.28172,44.1158],[7.28244,44.11573],[7.2828,44.11577],[7.28333,44.11548],[7.28455,44.11517],[7.28533,44.11485],[7.28613,44.11466],[7.28665,44.11441],[7.28669,44.11445],[7.28701,44.11438],[7.28799,44.11447],[7.28822,44.11454],[7.28838,44.11471],[7.28889,44.11493],[7.28897,44.11508],[7.2896,44.1153],[7.28976,44.11545],[7.29008,44.11553],[7.29022,44.11564],[7.29013,44.11577],[7.29038,44.11586],[7.29093,44.11636],[7.2918,44.11643],[7.29217,44.11652],[7.29228,44.11666],[7.2921,44.1167],[7.29209,44.11679],[7.29181,44.11687],[7.29202,44.11707],[7.29194,44.1171],[7.29235,44.11727],[7.29295,44.11767],[7.29293,44.11779],[7.29317,44.11798],[7.29391,44.11834],[7.29386,44.11867],[7.29391,44.11881],[7.29407,44.1189],[7.29427,44.1192],[7.29437,44.11949],[7.29512,44.11901],[7.29541,44.11872],[7.29601,44.11886],[7.29613,44.11877],[7.29618,44.11839],[7.296,44.1181],[7.29688,44.1166],[7.2969,44.11622],[7.29758,44.11595],[7.29848,44.11585],[7.299,44.11561],[7.29922,44.11559],[7.29967,44.11542],[7.30009,44.11517],[7.30037,44.11513],[7.30035,44.11498],[7.30131,44.11456],[7.30217,44.11442],[7.30215,44.11408],[7.30317,44.1137],[7.30457,44.11298],[7.30509,44.1128],[7.30526,44.11238],[7.30613,44.11219],[7.30633,44.11233],[7.30675,44.11205],[7.307,44.11215],[7.30769,44.11215],[7.30868,44.11154],[7.30968,44.11117],[7.31181,44.11105],[7.31295,44.1107],[7.31313,44.11024],[7.31421,44.10997],[7.3147,44.10973],[7.31487,44.10921],[7.31484,44.10912],[7.31459,44.10901],[7.31434,44.10905],[7.31426,44.10905],[7.31428,44.109],[7.31408,44.10901],[7.31415,44.10897],[7.31401,44.10897],[7.31395,44.10891],[7.31413,44.10885],[7.31395,44.10876],[7.31405,44.10875],[7.31403,44.10863],[7.31441,44.10854],[7.31463,44.10825],[7.31489,44.10813],[7.31476,44.108],[7.31565,44.10798],[7.31603,44.10813],[7.31619,44.10828],[7.31644,44.10838],[7.31704,44.10848],[7.31781,44.10831],[7.3182,44.10836],[7.31855,44.1083],[7.31869,44.10836],[7.319,44.10865],[7.31887,44.10882],[7.31888,44.10946],[7.31949,44.10967],[7.31972,44.11001],[7.31993,44.11014],[7.32023,44.11063],[7.32017,44.11117],[7.32071,44.11139],[7.3207,44.11169],[7.32107,44.11206],[7.32172,44.11214],[7.32166,44.11222],[7.32195,44.11238],[7.32199,44.11248],[7.3217,44.11261],[7.32162,44.11272],[7.32164,44.11321],[7.3223,44.1138],[7.32277,44.11406],[7.32317,44.11414],[7.32316,44.11433],[7.32346,44.11455],[7.32396,44.11475],[7.32463,44.11526],[7.32503,44.11565],[7.32511,44.11584],[7.32562,44.11608],[7.32598,44.11609],[7.32622,44.11627],[7.32641,44.11633],[7.32651,44.11651],[7.32757,44.11722],[7.32776,44.11724],[7.32777,44.11732],[7.32801,44.1174],[7.32846,44.11784],[7.32878,44.11836],[7.32889,44.11844],[7.3288,44.11856],[7.32897,44.11893],[7.32919,44.11916],[7.32921,44.11938],[7.32981,44.11968],[7.32985,44.11984],[7.33,44.11988],[7.3302,44.12007],[7.33047,44.12014],[7.33048,44.12034],[7.33058,44.12037],[7.33064,44.12052],[7.33061,44.12061],[7.33075,44.1206],[7.33079,44.12087],[7.33087,44.12081],[7.33092,44.12094],[7.33108,44.12097],[7.33098,44.12137],[7.33066,44.12148],[7.33052,44.12168],[7.33046,44.12206],[7.32999,44.12255],[7.32998,44.12278],[7.33022,44.12302],[7.33012,44.12339],[7.32994,44.12354],[7.32979,44.12393],[7.32924,44.12375],[7.32913,44.12377],[7.32913,44.12403],[7.32906,44.12418],[7.32949,44.12461],[7.32968,44.12492],[7.33054,44.1253],[7.33145,44.12498],[7.33167,44.12499],[7.33161,44.12508],[7.3317,44.12521],[7.33165,44.1254],[7.33156,44.12546],[7.33149,44.12567],[7.3316,44.12586],[7.33138,44.12608],[7.33143,44.12631],[7.33171,44.12632],[7.33198,44.12624],[7.33201,44.12629],[7.33217,44.12628],[7.33237,44.12589],[7.33282,44.12582],[7.33326,44.12564],[7.33407,44.12564],[7.33471,44.12498],[7.33493,44.12438],[7.33515,44.12414],[7.33522,44.12379],[7.33519,44.12355],[7.33498,44.12326],[7.33502,44.12316],[7.3348,44.12294],[7.33479,44.12277],[7.33496,44.12248],[7.33491,44.12225],[7.33511,44.12166],[7.33498,44.12118],[7.33506,44.12067],[7.33505,44.11948],[7.33532,44.11923],[7.33615,44.11887],[7.33627,44.11888],[7.33685,44.11864],[7.33699,44.11868],[7.33793,44.11795],[7.33815,44.11762],[7.33824,44.11764],[7.33858,44.11729],[7.33905,44.117],[7.33965,44.1169],[7.34019,44.11667],[7.34073,44.11654],[7.34083,44.11643],[7.34136,44.11621],[7.34145,44.11611],[7.34185,44.11601],[7.34209,44.11575],[7.34253,44.11568],[7.34287,44.11554],[7.34308,44.11533],[7.34335,44.11521],[7.34352,44.11499],[7.34385,44.11485],[7.34428,44.1148],[7.34496,44.1145],[7.34492,44.11437],[7.34503,44.11425],[7.34545,44.11413],[7.3458,44.11396],[7.34604,44.11393],[7.34651,44.11402],[7.34692,44.1137],[7.34714,44.11363],[7.34784,44.11352],[7.34849,44.11352],[7.34858,44.11345],[7.34929,44.11333],[7.34922,44.11307],[7.34933,44.11306],[7.34935,44.11301],[7.34942,44.11306],[7.34949,44.11297],[7.34964,44.11301],[7.34966,44.11295],[7.34987,44.113],[7.34984,44.11289],[7.34998,44.11294],[7.35005,44.1127],[7.35009,44.11273],[7.35011,44.11262],[7.35033,44.11248],[7.35035,44.11239],[7.35046,44.11245],[7.35054,44.11263],[7.35048,44.11272],[7.35055,44.11278],[7.35082,44.11288],[7.35088,44.11279],[7.35095,44.11285],[7.35102,44.11277],[7.35109,44.11282],[7.35116,44.11273],[7.35136,44.11298],[7.35149,44.11272],[7.35161,44.11279],[7.35174,44.11276],[7.35182,44.11286],[7.35203,44.11273],[7.3522,44.11284],[7.35226,44.11277],[7.35234,44.11279],[7.35247,44.11255],[7.35267,44.11262],[7.35287,44.11251],[7.35316,44.11253]]}},{"type":"Feature","properties":{"name":"ROUTE 2 of 4 · Days 2-3 · Le Boréon → Trécolpas → Pas des Ladres · ALWAYS ON","color":"#C8322B","kind":"route"},"geometry":{"type":"LineString","coordinates":[[7.30523,44.11247],[7.30509,44.1128],[7.30457,44.11298],[7.30317,44.1137],[7.30215,44.11408],[7.30217,44.11442],[7.30207,44.11447],[7.30189,44.11445],[7.30131,44.11456],[7.30035,44.11498],[7.30037,44.11513],[7.30009,44.11517],[7.29967,44.11542],[7.29922,44.11559],[7.299,44.11561],[7.29848,44.11585],[7.29758,44.11595],[7.2969,44.11622],[7.29688,44.1166],[7.296,44.1181],[7.29618,44.11839],[7.29613,44.11877],[7.29601,44.11886],[7.29541,44.11872],[7.29512,44.11901],[7.29437,44.11949],[7.29512,44.11901],[7.29541,44.11872],[7.29601,44.11886],[7.29613,44.11877],[7.29618,44.11839],[7.296,44.1181],[7.29688,44.1166],[7.2969,44.11622],[7.29758,44.11595],[7.29848,44.11585],[7.299,44.11561],[7.29922,44.11559],[7.29967,44.11542],[7.30009,44.11517],[7.30037,44.11513],[7.30035,44.11498],[7.30131,44.11456],[7.30189,44.11445],[7.30207,44.11447],[7.30217,44.11442],[7.30215,44.11408],[7.30317,44.1137],[7.30457,44.11298],[7.30509,44.1128],[7.30523,44.11247]]}},{"type":"Feature","properties":{"name":"ROUTE 2 of 4 · Days 2-3 · Le Boréon → Trécolpas → Pas des Ladres · ALWAYS ON","color":"#C8322B","kind":"route"},"geometry":{"type":"LineString","coordinates":[[7.29068,44.11223],[7.29064,44.11215],[7.28989,44.11368],[7.28979,44.11371]]}},{"type":"Feature","properties":{"name":"ROUTE 3 of 4 · Days 3-5 · Madone → Refuge de Nice → Merveilles → Authion · ALWAYS ON","color":"#C8322B","kind":"route"},"geometry":{"type":"LineString","coordinates":[[7.3531,44.11221],[7.35342,44.11233],[7.35328,44.11221],[7.35345,44.11224],[7.3534,44.11217],[7.35373,44.11221],[7.35342,44.11204],[7.35366,44.112],[7.35351,44.11189],[7.35377,44.1119],[7.35375,44.11184],[7.35392,44.11184],[7.3539,44.11147],[7.35412,44.11128],[7.35401,44.11117],[7.35411,44.11097],[7.35403,44.1109],[7.35399,44.11058],[7.35412,44.11027],[7.35406,44.11019],[7.35415,44.1101],[7.3541,44.11006],[7.35422,44.10995],[7.35418,44.10978],[7.35432,44.10961],[7.35428,44.1095],[7.35442,44.10948],[7.35429,44.10941],[7.35475,44.10909],[7.35482,44.10889],[7.35489,44.1089],[7.35482,44.10874],[7.35502,44.10875],[7.35501,44.10866],[7.3551,44.10863],[7.35485,44.10849],[7.35507,44.10835],[7.35503,44.10831],[7.35519,44.10827],[7.35509,44.10824],[7.35522,44.10819],[7.35512,44.1081],[7.35521,44.10805],[7.35508,44.10799],[7.35525,44.10794],[7.35521,44.10787],[7.35535,44.10788],[7.35509,44.10773],[7.35513,44.10689],[7.35527,44.10619],[7.35524,44.10561],[7.356,44.10487],[7.35616,44.10455],[7.35687,44.10392],[7.35677,44.10422],[7.35686,44.10419],[7.35683,44.1043],[7.35736,44.10396],[7.35761,44.10356],[7.35805,44.10332],[7.35818,44.10347],[7.35858,44.10341],[7.3586,44.10355],[7.35883,44.10336],[7.35906,44.10341],[7.35891,44.10328],[7.35895,44.10317],[7.35908,44.10328],[7.35919,44.10294],[7.35915,44.10261],[7.3592,44.10265],[7.35922,44.10253],[7.35914,44.10241],[7.35922,44.10202],[7.35941,44.10177],[7.35985,44.10147],[7.35984,44.10113],[7.36011,44.10097],[7.35998,44.10061],[7.36024,44.10057],[7.36015,44.09994],[7.36003,44.09982],[7.35996,44.09951],[7.35955,44.09875],[7.35928,44.09859],[7.35904,44.09862],[7.35875,44.09876],[7.35853,44.09873],[7.35815,44.09832],[7.35866,44.09839],[7.3585,44.09817],[7.35801,44.09786],[7.3581,44.09775],[7.35832,44.09779],[7.35819,44.09749],[7.35775,44.09733],[7.35723,44.09705],[7.35699,44.09703],[7.35689,44.09669],[7.35719,44.09648],[7.35742,44.0965],[7.35758,44.09643],[7.35632,44.09597],[7.35646,44.09594],[7.35654,44.09577],[7.35673,44.09564],[7.35766,44.09584],[7.35841,44.09575],[7.35898,44.09596],[7.35909,44.09595],[7.35974,44.09558],[7.35977,44.09568],[7.35994,44.09544],[7.36012,44.09539],[7.36021,44.09592],[7.36041,44.09591],[7.36084,44.09612],[7.36111,44.09605],[7.36125,44.09621],[7.36155,44.0963],[7.36162,44.09645],[7.36186,44.09663],[7.36199,44.09721],[7.36216,44.09741],[7.36231,44.09796],[7.36249,44.09816],[7.36265,44.09855],[7.36262,44.09866],[7.36272,44.09881],[7.36266,44.09887],[7.36274,44.09902],[7.36273,44.09936],[7.36264,44.09949],[7.36268,44.09964],[7.36296,44.09995],[7.36324,44.1001],[7.36341,44.10012],[7.3635,44.10065],[7.36386,44.10052],[7.36393,44.10085],[7.36412,44.10099],[7.36442,44.10147],[7.36447,44.10176],[7.36436,44.10184],[7.36451,44.10184],[7.36472,44.10194],[7.36542,44.10197],[7.36571,44.10213],[7.36585,44.10214],[7.36627,44.10202],[7.36706,44.10196],[7.36717,44.1017],[7.36745,44.1015],[7.3681,44.10118],[7.36871,44.1011],[7.3688,44.101],[7.36872,44.10074],[7.36898,44.10069],[7.36907,44.10061],[7.37011,44.10096],[7.37036,44.10092],[7.37132,44.10106],[7.37161,44.101],[7.37257,44.10122],[7.37294,44.10118],[7.37366,44.10132],[7.37397,44.10147],[7.3744,44.10214],[7.37507,44.10226],[7.37515,44.10236],[7.37541,44.10229],[7.37588,44.10231],[7.37623,44.10247],[7.37784,44.10243],[7.37801,44.10246],[7.37811,44.10254],[7.37891,44.10258],[7.37915,44.10251],[7.37934,44.1026],[7.37925,44.10275],[7.37972,44.10281],[7.38013,44.10278],[7.38033,44.10273],[7.38051,44.10258],[7.38082,44.10253],[7.38085,44.10246],[7.38123,44.10234],[7.38126,44.10209],[7.38139,44.10203],[7.38169,44.10192],[7.38188,44.10197],[7.38204,44.10192],[7.38234,44.10169],[7.38298,44.10166],[7.38328,44.10148],[7.38349,44.10143],[7.38426,44.10166],[7.38436,44.10177],[7.3845,44.10169],[7.3846,44.10172],[7.38469,44.10186],[7.38479,44.10182],[7.38509,44.10143],[7.38528,44.10142],[7.38589,44.10111],[7.38598,44.10117],[7.38602,44.10109],[7.38614,44.10115],[7.38621,44.10104],[7.38627,44.10111],[7.3863,44.10105],[7.38641,44.10108],[7.38654,44.10087],[7.38682,44.10075],[7.38723,44.10031],[7.38848,44.10003],[7.38961,44.10016],[7.38967,44.10029],[7.38981,44.10031],[7.39067,44.10014],[7.39129,44.09985],[7.39145,44.09979],[7.3915,44.09982],[7.3918,44.09952],[7.3919,44.09959],[7.3921,44.09958],[7.39238,44.09936],[7.39237,44.09924],[7.39255,44.09897],[7.39275,44.09875],[7.39304,44.0986],[7.39316,44.09839],[7.39333,44.09848],[7.39344,44.09843],[7.39356,44.09846],[7.39374,44.09834],[7.39383,44.09842],[7.39434,44.09806],[7.39442,44.09808],[7.39459,44.0979],[7.39475,44.09802],[7.39482,44.09825],[7.39512,44.09857],[7.39535,44.09859],[7.39602,44.09885],[7.39652,44.09885],[7.39678,44.09896],[7.39696,44.09897],[7.39697,44.09922],[7.39672,44.09947],[7.39665,44.09941],[7.39657,44.09946],[7.39644,44.0994],[7.39638,44.09955],[7.39635,44.10085],[7.39609,44.10116],[7.39599,44.10216],[7.39581,44.10237],[7.39616,44.10315],[7.39621,44.10371],[7.39647,44.10426],[7.39681,44.1045],[7.39727,44.10454],[7.39747,44.10473],[7.39802,44.10474],[7.39914,44.10503],[7.39973,44.10503],[7.40027,44.1052],[7.40033,44.10508],[7.40056,44.10515],[7.40047,44.10472],[7.4007,44.10474],[7.40058,44.10451],[7.40078,44.10457],[7.40104,44.10478],[7.40114,44.10482],[7.40125,44.10478],[7.40133,44.10483],[7.40143,44.10483],[7.4015,44.10473],[7.40217,44.10477],[7.4029,44.10454],[7.40308,44.10455],[7.40378,44.10422],[7.40357,44.1041],[7.40367,44.1039],[7.40362,44.10381],[7.404,44.10368],[7.40419,44.10351],[7.40504,44.10339],[7.40532,44.1033],[7.40526,44.10325],[7.40543,44.10327],[7.40578,44.10307],[7.40597,44.10308],[7.4063,44.10299],[7.40634,44.10292],[7.40642,44.10296],[7.4065,44.10293],[7.40665,44.10312],[7.40683,44.10323],[7.407,44.10321],[7.40713,44.10314],[7.40803,44.10323],[7.40807,44.10318],[7.40799,44.10308],[7.40804,44.10303],[7.40785,44.10293],[7.40761,44.1024],[7.40789,44.10222],[7.4079,44.1021],[7.40799,44.10206],[7.40839,44.1019],[7.40864,44.10189],[7.40861,44.10183],[7.40902,44.10177],[7.40901,44.10149],[7.40915,44.10141],[7.40997,44.10141],[7.41021,44.1012],[7.41053,44.10116],[7.41107,44.10095],[7.412,44.10101],[7.41242,44.10112],[7.41313,44.10121],[7.41391,44.10121],[7.41446,44.10132],[7.41664,44.10115],[7.41669,44.10121],[7.41727,44.10099],[7.41825,44.10086],[7.41852,44.10062],[7.41864,44.10037],[7.41886,44.10036],[7.41926,44.09984],[7.41954,44.09984],[7.42039,44.09907],[7.42071,44.09905],[7.42074,44.09895],[7.4209,44.09891],[7.42176,44.09885],[7.42206,44.09893],[7.42287,44.09862],[7.4231,44.09836],[7.42313,44.09818],[7.42348,44.0981],[7.4234,44.09795],[7.42362,44.09787],[7.42375,44.09772],[7.42368,44.09766],[7.42406,44.09744],[7.42434,44.09744],[7.42434,44.09721],[7.42448,44.09712],[7.42469,44.09711],[7.42539,44.09733],[7.42601,44.09731],[7.42672,44.09702],[7.42688,44.09691],[7.42701,44.09663],[7.42763,44.09666],[7.42785,44.09659],[7.42785,44.09639],[7.42769,44.09621],[7.42766,44.09604],[7.42771,44.09581],[7.42786,44.09566],[7.42801,44.09567],[7.42804,44.09561],[7.42799,44.09512],[7.42817,44.09506],[7.4284,44.09486],[7.42849,44.09453],[7.42875,44.09418],[7.42897,44.09405],[7.42919,44.09321],[7.42963,44.09263],[7.42948,44.09237],[7.42959,44.09183],[7.42993,44.09172],[7.43074,44.091],[7.43177,44.09027],[7.43208,44.09025],[7.43227,44.08997],[7.43287,44.08956],[7.43301,44.08931],[7.43342,44.08904],[7.43365,44.08832],[7.43407,44.08779],[7.43435,44.08763],[7.43509,44.0869],[7.43535,44.08675],[7.43544,44.08642],[7.43575,44.08596],[7.43599,44.08511],[7.4365,44.08468],[7.43666,44.08461],[7.4372,44.0846],[7.43727,44.08454],[7.43725,44.08413],[7.43745,44.08399],[7.4377,44.08361],[7.43809,44.08342],[7.43824,44.08343],[7.43824,44.08333],[7.43836,44.08335],[7.43828,44.08255],[7.4382,44.08239],[7.43784,44.08213],[7.43867,44.08217],[7.43849,44.08188],[7.43841,44.08156],[7.43916,44.08168],[7.43898,44.08088],[7.43887,44.08067],[7.43847,44.08053],[7.43843,44.08044],[7.43827,44.08035],[7.43833,44.08026],[7.43817,44.08017],[7.43797,44.08019],[7.43734,44.07981],[7.43731,44.07972],[7.43748,44.07977],[7.43746,44.0797],[7.43787,44.07971],[7.4375,44.07952],[7.43763,44.0795],[7.4371,44.07892],[7.43765,44.07906],[7.43728,44.07863],[7.43773,44.07872],[7.43766,44.07856],[7.43733,44.07831],[7.43735,44.07823],[7.43749,44.07826],[7.4375,44.07821],[7.43807,44.07834],[7.43804,44.0782],[7.43751,44.07787],[7.4374,44.0775],[7.43754,44.07746],[7.43783,44.0772],[7.4382,44.07638],[7.43832,44.07627],[7.43821,44.07602],[7.43835,44.07569],[7.43857,44.07546],[7.43891,44.07447],[7.43935,44.07373],[7.4393,44.07366],[7.43963,44.07346],[7.4398,44.07319],[7.43983,44.07305],[7.43964,44.07292],[7.43984,44.07261],[7.4397,44.07236],[7.43976,44.07217],[7.43972,44.07178],[7.43982,44.0715],[7.44009,44.07119],[7.44039,44.0711],[7.44067,44.07057],[7.44103,44.07015],[7.44107,44.0699],[7.44128,44.06954],[7.44181,44.06909],[7.44185,44.06859],[7.44178,44.06825],[7.44207,44.06749],[7.44201,44.0673],[7.44223,44.06705],[7.44225,44.06674],[7.44243,44.06666],[7.44245,44.06644],[7.44239,44.06644],[7.44246,44.06616],[7.44269,44.06596],[7.4423,44.06589],[7.44218,44.06576],[7.44205,44.06574],[7.44192,44.06546],[7.44235,44.06484],[7.44305,44.06466],[7.443,44.06443],[7.44314,44.06428],[7.44311,44.0641],[7.44333,44.0633],[7.44306,44.06319],[7.44291,44.06266],[7.44262,44.06246],[7.44259,44.06236],[7.44324,44.06189],[7.4432,44.06167],[7.44299,44.06157],[7.44329,44.06151],[7.44316,44.06129],[7.44329,44.06039],[7.44316,44.06023],[7.44291,44.06016],[7.44277,44.06004],[7.44286,44.05942],[7.44254,44.05913],[7.44246,44.05883],[7.44255,44.05868],[7.44271,44.05862],[7.44331,44.05806],[7.4439,44.05792],[7.44414,44.05778],[7.44504,44.05761],[7.44654,44.05713],[7.44708,44.05706],[7.44835,44.05706],[7.44965,44.05698],[7.44965,44.05704],[7.4502,44.05699],[7.45085,44.05684],[7.45115,44.05687],[7.45116,44.05659],[7.45178,44.05646],[7.45211,44.05626],[7.45211,44.05617],[7.4519,44.05596],[7.45153,44.0558],[7.45201,44.05557],[7.45134,44.05547],[7.45154,44.05502],[7.45111,44.05463],[7.45132,44.05422],[7.45128,44.05413],[7.45094,44.05398],[7.4507,44.05376],[7.4505,44.05377],[7.45013,44.05358],[7.44946,44.05356],[7.44812,44.05388],[7.44816,44.05371],[7.44796,44.05339],[7.44773,44.05322],[7.44777,44.05286],[7.44772,44.05283],[7.44752,44.05284],[7.4475,44.05274],[7.4474,44.05271],[7.44732,44.05275],[7.44726,44.05258],[7.44718,44.05261],[7.44718,44.05276],[7.44698,44.0528],[7.4463,44.05264],[7.44618,44.05269],[7.44588,44.05262],[7.44562,44.05262],[7.44539,44.05229],[7.44479,44.05205],[7.44477,44.0519],[7.44464,44.05176],[7.44431,44.05177],[7.44431,44.0519],[7.44396,44.0519],[7.44402,44.05209],[7.44376,44.05204],[7.44366,44.0521],[7.44341,44.0521],[7.44324,44.05198],[7.44286,44.05198],[7.44257,44.0517],[7.44216,44.05171],[7.44175,44.05179],[7.44132,44.05169],[7.44058,44.05166],[7.44049,44.05161],[7.44047,44.0515],[7.44022,44.05147],[7.44028,44.05139],[7.43984,44.05133],[7.43978,44.05122],[7.43961,44.05116],[7.43943,44.05128],[7.43918,44.05128],[7.43903,44.05137],[7.43881,44.0514],[7.43853,44.05132],[7.43789,44.05138],[7.43756,44.05133],[7.43752,44.05123],[7.4373,44.05126],[7.43696,44.0511],[7.43627,44.05094],[7.43626,44.05085],[7.43579,44.05051],[7.43585,44.05045],[7.43576,44.0504],[7.43545,44.05043],[7.4351,44.05027],[7.43492,44.05032],[7.43382,44.05014],[7.43345,44.05015],[7.43338,44.04986],[7.43343,44.04973],[7.43297,44.04968],[7.43267,44.04949],[7.4321,44.04943],[7.43176,44.04927],[7.43133,44.04932],[7.43064,44.04921],[7.43067,44.04842],[7.43052,44.0483],[7.43037,44.04801],[7.43039,44.04779],[7.4308,44.0475],[7.43076,44.04746],[7.43085,44.04727],[7.43077,44.04727],[7.43078,44.04718],[7.43064,44.04723],[7.43048,44.04718],[7.43064,44.04705],[7.43056,44.04701],[7.43088,44.04654],[7.43072,44.04622],[7.43076,44.04568],[7.43096,44.04536],[7.43087,44.04495],[7.43085,44.04425],[7.43063,44.04376],[7.43043,44.04251],[7.4299,44.04241],[7.42969,44.04214],[7.42954,44.04214],[7.42951,44.04194],[7.42932,44.04187],[7.42918,44.04174],[7.42922,44.04164],[7.42899,44.04135],[7.42905,44.04127],[7.42898,44.04126],[7.42907,44.04093],[7.42879,44.04105],[7.42879,44.04101],[7.42915,44.04066],[7.42916,44.04049],[7.42906,44.04036],[7.42912,44.0403],[7.42879,44.04027],[7.42864,44.04019],[7.42875,44.04003],[7.42896,44.03991],[7.4296,44.0389],[7.42927,44.03903],[7.42902,44.03901],[7.42888,44.03889],[7.42884,44.03864],[7.42865,44.03837],[7.42729,44.03704],[7.427,44.03689],[7.42686,44.03641],[7.42689,44.03606],[7.42669,44.0354],[7.42627,44.03502],[7.42601,44.0345],[7.42588,44.03438],[7.42592,44.03426],[7.42582,44.03384],[7.42611,44.03305],[7.42569,44.03224],[7.42514,44.03205],[7.42448,44.03204],[7.42376,44.03188],[7.42342,44.03187],[7.42332,44.03175],[7.42298,44.03168],[7.42227,44.03137],[7.42126,44.03077],[7.41965,44.03038],[7.41917,44.03006],[7.41914,44.02995],[7.41894,44.02991],[7.41874,44.02964],[7.41813,44.02941],[7.41781,44.02918],[7.4178,44.02902],[7.41739,44.02862],[7.41685,44.02831],[7.41675,44.02817],[7.41599,44.02778],[7.41505,44.02711],[7.41484,44.02689],[7.41417,44.02541],[7.41412,44.02513],[7.41469,44.02507],[7.41447,44.02489],[7.41443,44.02465],[7.41489,44.02355],[7.41602,44.02167],[7.41665,44.02083],[7.41788,44.01957],[7.41823,44.01927],[7.4192,44.01886],[7.41957,44.01837],[7.42001,44.01811],[7.42063,44.01758],[7.42077,44.01735],[7.42107,44.01715],[7.42192,44.01677],[7.42224,44.01628],[7.4224,44.01516],[7.42282,44.01586],[7.42299,44.01602],[7.4231,44.01602],[7.42318,44.0159],[7.42327,44.01573],[7.42312,44.01548],[7.42321,44.01506],[7.42312,44.01487],[7.42322,44.01406],[7.42318,44.01297],[7.42298,44.01267],[7.42283,44.01259],[7.42336,44.0123],[7.42386,44.0118],[7.42402,44.01134],[7.42441,44.01078],[7.42444,44.01052],[7.42512,44.01024],[7.42536,44.01006],[7.42548,44.00978],[7.42586,44.00965],[7.42611,44.00946],[7.4266,44.00878],[7.42699,44.00865],[7.42715,44.00866],[7.42736,44.00855],[7.42777,44.00825],[7.42823,44.00805],[7.42883,44.00763],[7.42958,44.00637],[7.42987,44.00613],[7.43005,44.00611],[7.43043,44.00581],[7.43122,44.00424],[7.43126,44.00376],[7.43197,44.00153],[7.43198,44.00116],[7.43231,44.00065],[7.43228,44.00054],[7.43165,44.00032],[7.43078,44.00026],[7.42924,43.99975],[7.42722,43.99961],[7.42668,43.9991],[7.42639,43.9987],[7.42561,43.99829],[7.42548,43.99787],[7.42536,43.9978],[7.42528,43.99761],[7.4249,43.99733],[7.42455,43.99721],[7.4241,43.99688],[7.42298,43.99638],[7.42272,43.9962],[7.4218,43.99614],[7.42133,43.99619],[7.42025,43.99648],[7.41989,43.99651],[7.4191,43.9967],[7.41756,43.99683],[7.41696,43.99679],[7.41659,43.99665],[7.41513,43.99637],[7.41312,43.99563],[7.41314,43.9955],[7.41205,43.9951],[7.4116,43.99486],[7.4112,43.99456],[7.41077,43.99381],[7.41066,43.99297],[7.41055,43.99272],[7.40952,43.99207],[7.40829,43.99081],[7.40777,43.99045],[7.40698,43.99021],[7.40642,43.98989],[7.40582,43.98981],[7.40548,43.98949],[7.40455,43.98914],[7.40424,43.98915],[7.4038,43.98889],[7.40342,43.98904],[7.40318,43.98891],[7.40288,43.98909],[7.40264,43.98903],[7.40241,43.98905],[7.40233,43.98893],[7.40149,43.98883],[7.40097,43.98862],[7.40005,43.98792],[7.40107,43.98824],[7.40202,43.98826],[7.40223,43.98815],[7.40251,43.98788],[7.40304,43.98722],[7.4033,43.98712],[7.40414,43.98705],[7.40441,43.98694],[7.40517,43.98694],[7.40541,43.98687],[7.40559,43.9867],[7.40641,43.98626],[7.40747,43.98729],[7.40768,43.98781],[7.40875,43.98822],[7.40897,43.98859],[7.40913,43.98865],[7.40951,43.98862],[7.41024,43.98877],[7.41045,43.98873],[7.41176,43.98963],[7.41183,43.98971],[7.41174,43.98996],[7.41191,43.99017],[7.41188,43.99046],[7.41218,43.99063],[7.41281,43.99064],[7.413,43.9907],[7.41339,43.99093],[7.41375,43.99103],[7.41402,43.99138],[7.4139,43.99216],[7.41403,43.99263],[7.41525,43.99251],[7.41578,43.99269],[7.41641,43.99304],[7.41678,43.99334],[7.41705,43.99333],[7.41738,43.99323],[7.41768,43.9933],[7.4178,43.99326],[7.4184,43.99245],[7.41917,43.99216],[7.41944,43.99162],[7.41989,43.9913],[7.42008,43.99127],[7.42132,43.9916],[7.42232,43.99178],[7.42322,43.99234],[7.42393,43.99262],[7.42432,43.99285],[7.42448,43.99262],[7.42468,43.9925],[7.42495,43.99245],[7.4249,43.99229],[7.42502,43.99207],[7.42515,43.99151],[7.42523,43.99134],[7.42562,43.99108],[7.42547,43.99014],[7.42556,43.98997],[7.42601,43.98977],[7.4265,43.98968],[7.42723,43.98915],[7.42761,43.98898],[7.42846,43.98904],[7.42863,43.98927],[7.42888,43.98923],[7.42901,43.98899],[7.42935,43.98877],[7.42942,43.9886],[7.42961,43.98848],[7.42966,43.9883],[7.4295,43.98795],[7.4295,43.98777],[7.42918,43.98726],[7.42906,43.98682],[7.42935,43.98679],[7.42998,43.98689],[7.43047,43.9868],[7.431,43.98662],[7.43125,43.98662],[7.43141,43.98666],[7.43156,43.98679],[7.43177,43.98679],[7.43267,43.98714],[7.43332,43.98683],[7.43441,43.98575],[7.43463,43.98567],[7.43478,43.98547],[7.43553,43.98493],[7.43576,43.9846],[7.43625,43.98446],[7.43661,43.98407],[7.43685,43.98391],[7.43763,43.98357],[7.4378,43.98357],[7.43783,43.98324],[7.43809,43.98276],[7.43857,43.98232],[7.43889,43.98185],[7.43956,43.98122],[7.43952,43.981],[7.43929,43.98077],[7.43991,43.98089],[7.43944,43.98041],[7.43995,43.98051],[7.44056,43.98077],[7.44073,43.98147],[7.44014,43.98214],[7.44029,43.98271],[7.44046,43.98257],[7.44092,43.98236],[7.44174,43.98215],[7.44186,43.98202],[7.44212,43.98196],[7.44153,43.98281],[7.44155,43.98298],[7.4432,43.98219],[7.44381,43.98198]]}},{"type":"Feature","properties":{"name":"ROUTE 3 of 4 · Days 3-5 · Madone → Refuge de Nice → Merveilles → Authion · ALWAYS ON","color":"#C8322B","kind":"route"},"geometry":{"type":"LineString","coordinates":[[7.3531,44.11221],[7.35316,44.11253]]}},{"type":"Feature","properties":{"name":"ROUTE 4 of 4 · Days 5-7 · Camp d'Argent → Sospel → Menton · ALWAYS ON","color":"#C8322B","kind":"route"},"geometry":{"type":"LineString","coordinates":[[7.44381,43.98198],[7.44398,43.9817],[7.44407,43.98131],[7.44428,43.98099],[7.44479,43.98069],[7.44546,43.97999],[7.44565,43.97904],[7.44565,43.97851],[7.44582,43.9778],[7.44603,43.97763],[7.4463,43.97679],[7.44724,43.97555],[7.44725,43.97515],[7.44765,43.97441],[7.4477,43.97417],[7.44824,43.97362],[7.44892,43.97324],[7.449,43.97314],[7.44861,43.97246],[7.44847,43.97186],[7.44721,43.9694],[7.44776,43.96755],[7.44772,43.96691],[7.44802,43.96573],[7.44832,43.96502],[7.44882,43.9644],[7.44902,43.96382],[7.44935,43.96343],[7.44954,43.96305],[7.44982,43.96277],[7.45011,43.96193],[7.4498,43.96106],[7.44974,43.96008],[7.44995,43.95933],[7.45059,43.95792],[7.45314,43.95561],[7.4534,43.95527],[7.45377,43.95464],[7.4542,43.953],[7.45447,43.95254],[7.45467,43.95236],[7.45469,43.95217],[7.45534,43.95165],[7.45567,43.95107],[7.45564,43.95028],[7.45545,43.95003],[7.45553,43.94976],[7.45568,43.94959],[7.45619,43.94916],[7.45626,43.94885],[7.45623,43.94844],[7.45657,43.94821],[7.45657,43.94808],[7.45619,43.94744],[7.45618,43.94731],[7.45628,43.94712],[7.45667,43.94675],[7.45684,43.94644],[7.4568,43.94615],[7.45703,43.94523],[7.45663,43.94357],[7.45659,43.94295],[7.45623,43.94231],[7.45586,43.94197],[7.45599,43.94124],[7.45586,43.94056],[7.45537,43.93993],[7.45498,43.93967],[7.45467,43.93894],[7.45364,43.9378],[7.45315,43.93738],[7.45248,43.93699],[7.45204,43.93688],[7.45194,43.93661],[7.45154,43.93622],[7.45088,43.93514],[7.45087,43.93587],[7.45062,43.9365],[7.45057,43.93694],[7.45035,43.93734],[7.45005,43.9376],[7.4493,43.93769],[7.44906,43.93764],[7.44921,43.93727],[7.44943,43.93696],[7.44929,43.93667],[7.44921,43.93674],[7.44905,43.93644],[7.44897,43.93655],[7.44878,43.93606],[7.44842,43.93588],[7.44782,43.93532],[7.44782,43.93486],[7.44764,43.9347],[7.44763,43.93479],[7.44716,43.93445],[7.44674,43.93426],[7.44645,43.93394],[7.44582,43.9336],[7.44491,43.93232],[7.44445,43.93215],[7.44411,43.9318],[7.44317,43.93139],[7.44294,43.93109],[7.44158,43.93051],[7.44071,43.93061],[7.4403,43.93048],[7.44005,43.93027],[7.43895,43.9301],[7.43772,43.93028],[7.43782,43.92981],[7.43744,43.92978],[7.43775,43.92925],[7.43777,43.92877],[7.43764,43.92831],[7.4375,43.92726],[7.43775,43.9259],[7.43776,43.92558],[7.43762,43.92502],[7.43789,43.92418],[7.43745,43.92299],[7.43685,43.9221],[7.43678,43.92169],[7.43659,43.92146],[7.43659,43.92105],[7.43649,43.92076],[7.43695,43.91937],[7.43712,43.91706],[7.43669,43.91619],[7.43627,43.91386],[7.43638,43.91374],[7.43645,43.91303],[7.43679,43.91243],[7.43682,43.9122],[7.43666,43.91152],[7.43656,43.91146],[7.43682,43.91136],[7.43678,43.9112],[7.43691,43.91114],[7.4371,43.91138],[7.43727,43.91136],[7.43742,43.91148],[7.43748,43.91074],[7.43741,43.91001],[7.43776,43.90945],[7.43826,43.90899],[7.43846,43.90907],[7.43868,43.90871],[7.4387,43.90848],[7.43886,43.9082],[7.43878,43.90779],[7.43862,43.90758],[7.43869,43.90742],[7.43867,43.90696],[7.43901,43.90612],[7.43931,43.90596],[7.43978,43.90591],[7.43997,43.90563],[7.44032,43.9054],[7.44117,43.90503],[7.44115,43.9049],[7.4414,43.90494],[7.44158,43.9049],[7.44186,43.90459],[7.44189,43.9039],[7.44177,43.90343],[7.44144,43.90273],[7.44177,43.90182],[7.44186,43.90115],[7.44236,43.90064],[7.44236,43.90054],[7.44252,43.90035],[7.44274,43.90036],[7.44276,43.9001],[7.44294,43.89983],[7.44298,43.8997],[7.4429,43.8995],[7.44281,43.89958],[7.44269,43.89957],[7.44288,43.89914],[7.44281,43.89873],[7.44324,43.89892],[7.44331,43.89804],[7.4431,43.89792],[7.44396,43.89783],[7.44435,43.89768],[7.44444,43.89733],[7.44485,43.89671],[7.44545,43.89625],[7.446,43.89596],[7.44598,43.8959],[7.44568,43.89605],[7.44509,43.89617],[7.44584,43.89574],[7.44594,43.89562],[7.44593,43.8953],[7.44609,43.89478],[7.44679,43.89448],[7.44703,43.8942],[7.44669,43.89437],[7.44659,43.89437],[7.44693,43.89407],[7.44681,43.89387],[7.44684,43.89362],[7.44612,43.8933],[7.44608,43.89313],[7.44599,43.89311],[7.446,43.89288],[7.44587,43.89271],[7.44534,43.89234],[7.44521,43.89217],[7.44519,43.89206],[7.44527,43.89198],[7.44595,43.89175],[7.44539,43.89174],[7.44582,43.89167],[7.44628,43.89122],[7.44693,43.89139],[7.44654,43.89108],[7.44621,43.89065],[7.4461,43.89065],[7.44595,43.89084],[7.44591,43.89082],[7.44598,43.89053],[7.44641,43.89048],[7.4458,43.89033],[7.4459,43.89028],[7.44618,43.8903],[7.44631,43.89019],[7.44613,43.89024],[7.44587,43.89012],[7.4457,43.89014],[7.44574,43.89003],[7.44597,43.89006],[7.44561,43.88989],[7.44576,43.88985],[7.44597,43.88992],[7.44574,43.88976],[7.44536,43.88976],[7.44536,43.88972],[7.44577,43.88961],[7.44519,43.88956],[7.44575,43.88944],[7.44503,43.88931],[7.44486,43.88934],[7.44516,43.88922],[7.44519,43.88915],[7.44498,43.88897],[7.44482,43.88869],[7.44481,43.88844],[7.44462,43.88806],[7.44461,43.88768],[7.44423,43.88722],[7.44421,43.88696],[7.44405,43.88726],[7.44397,43.88707],[7.44411,43.88664],[7.4438,43.88547],[7.4439,43.88408],[7.44416,43.88387],[7.4449,43.88403],[7.44547,43.88397],[7.44553,43.88392],[7.44498,43.88235],[7.44516,43.88206],[7.44531,43.88145],[7.4459,43.88095],[7.44627,43.88077],[7.44663,43.88047],[7.44743,43.87955],[7.44772,43.8793],[7.44786,43.87935],[7.44773,43.8791],[7.44829,43.87915],[7.44837,43.87907],[7.44841,43.8785],[7.44866,43.87833],[7.44929,43.87824],[7.44905,43.87776],[7.44993,43.87759],[7.45003,43.87727],[7.4505,43.87669],[7.45095,43.87657],[7.45165,43.87671],[7.45201,43.87669],[7.45215,43.87657],[7.45237,43.87606],[7.45248,43.87597],[7.45442,43.87555],[7.4543,43.87519],[7.45511,43.87508],[7.4564,43.87465],[7.45666,43.87441],[7.45695,43.87428],[7.45757,43.8745],[7.45779,43.87452],[7.45865,43.87452],[7.45974,43.87435],[7.46047,43.87372],[7.4608,43.87329],[7.46092,43.87324],[7.46105,43.87326],[7.46138,43.87362],[7.46155,43.87401],[7.46181,43.87416],[7.46232,43.87412],[7.46299,43.87421],[7.46376,43.87421],[7.46409,43.87416],[7.46486,43.87443],[7.46519,43.87443],[7.46671,43.87402],[7.46721,43.87396],[7.46759,43.87347],[7.46801,43.87335],[7.46869,43.87288],[7.46902,43.87257],[7.46938,43.87153],[7.46956,43.8713],[7.47027,43.87134],[7.4707,43.87129],[7.47144,43.87137],[7.47248,43.87139],[7.47316,43.87127],[7.47341,43.87114],[7.47376,43.8706],[7.47426,43.87038],[7.47452,43.87017],[7.47502,43.86994],[7.47511,43.86971],[7.47497,43.86866],[7.47505,43.86818],[7.47524,43.86785],[7.4756,43.86763],[7.47606,43.86724],[7.47644,43.86673],[7.47656,43.8657],[7.4765,43.86569],[7.47655,43.86556],[7.47648,43.86559],[7.47646,43.86545],[7.47654,43.86531],[7.47672,43.86523],[7.47681,43.86435],[7.47708,43.86438],[7.47662,43.86323],[7.4767,43.8632],[7.47659,43.86306],[7.4768,43.86308],[7.47655,43.86264],[7.47685,43.86265],[7.47708,43.86217],[7.47702,43.86108],[7.47676,43.86073],[7.47596,43.86021],[7.47552,43.85952],[7.47595,43.85925],[7.47659,43.85844],[7.47809,43.85692],[7.47835,43.85634],[7.47831,43.85609],[7.47844,43.85599],[7.47857,43.85595],[7.47904,43.85604],[7.47933,43.85632],[7.47988,43.85658],[7.48036,43.85628],[7.48094,43.85515],[7.48134,43.85466],[7.48138,43.85396],[7.48156,43.85361],[7.48183,43.85343],[7.48221,43.85262],[7.48255,43.85239],[7.4826,43.85211],[7.48246,43.85213],[7.48243,43.852],[7.48231,43.85203],[7.48221,43.85197],[7.48248,43.85155],[7.48263,43.8515],[7.48348,43.85191],[7.48373,43.85192],[7.48436,43.85221],[7.48452,43.85216],[7.48484,43.85178],[7.48527,43.85163],[7.48599,43.85068],[7.48649,43.85026],[7.48664,43.85022],[7.48662,43.85013],[7.48674,43.84997],[7.48834,43.84938],[7.48867,43.84897],[7.4899,43.8481],[7.49021,43.84805],[7.49073,43.84771],[7.49094,43.84769],[7.49106,43.84756],[7.49172,43.84717],[7.492,43.84715],[7.49235,43.84723],[7.49307,43.8469],[7.49343,43.84655],[7.49371,43.84611],[7.49386,43.84603],[7.49509,43.84577],[7.49601,43.84551],[7.49683,43.84498],[7.49723,43.84487],[7.49775,43.84452],[7.49828,43.84443],[7.49836,43.84446],[7.49843,43.84439],[7.49962,43.84408],[7.49978,43.8438],[7.50017,43.84363],[7.50033,43.84329],[7.50082,43.8429],[7.5009,43.84272],[7.50139,43.84254],[7.50165,43.84156],[7.50161,43.84069],[7.50215,43.83978],[7.50269,43.83918],[7.50281,43.83837],[7.50351,43.83643],[7.5035,43.83589],[7.50366,43.83495],[7.50344,43.83423],[7.50329,43.83327],[7.50337,43.833],[7.50314,43.83285],[7.50316,43.83244],[7.50342,43.83172],[7.50354,43.83037],[7.50385,43.82944],[7.50407,43.82908],[7.5042,43.82831],[7.50433,43.82829],[7.50431,43.8278],[7.50443,43.82784],[7.50442,43.82775],[7.50481,43.828],[7.50465,43.8275],[7.50424,43.82699],[7.50404,43.82687],[7.50422,43.82684],[7.5042,43.82671],[7.50454,43.82673],[7.50489,43.8266],[7.50532,43.82627],[7.50589,43.82505],[7.50596,43.82463],[7.50635,43.82391],[7.50634,43.82368],[7.50615,43.82336],[7.50571,43.82286],[7.50544,43.82261],[7.50432,43.82187],[7.50528,43.82165],[7.50558,43.82176],[7.50575,43.82172],[7.50605,43.82135],[7.50588,43.8212],[7.50587,43.82111],[7.50612,43.82079],[7.50622,43.82038],[7.50638,43.82013],[7.50643,43.81981],[7.50676,43.81985],[7.50695,43.81978],[7.5074,43.81982],[7.50741,43.81956],[7.50782,43.81949],[7.50813,43.81921],[7.50841,43.81921],[7.50844,43.81911],[7.50874,43.81903],[7.5093,43.81864],[7.50973,43.81849],[7.50996,43.81817],[7.51006,43.81786],[7.51013,43.81789],[7.51021,43.81782],[7.51045,43.81807],[7.51052,43.81803],[7.51078,43.81824],[7.51114,43.81839],[7.51147,43.81871],[7.51157,43.81863],[7.51165,43.8186],[7.51167,43.81864],[7.51189,43.81852],[7.51216,43.81815],[7.51227,43.81788],[7.51222,43.81764],[7.51256,43.8173],[7.51273,43.81657],[7.5126,43.81633],[7.51265,43.81591],[7.51282,43.81595],[7.51257,43.81578],[7.51266,43.81571],[7.51291,43.81569],[7.51266,43.81556],[7.51277,43.81553],[7.51272,43.81547],[7.51305,43.81533],[7.51299,43.81489],[7.51274,43.81449],[7.51266,43.81377],[7.51274,43.8137],[7.51309,43.81374],[7.51357,43.8137],[7.51406,43.81339],[7.51417,43.81318],[7.51404,43.81316],[7.51403,43.8131],[7.51438,43.8127],[7.51406,43.81266],[7.51401,43.8125],[7.51388,43.81248],[7.51423,43.8122],[7.51408,43.81215],[7.51426,43.81206],[7.51419,43.81203],[7.51421,43.81191],[7.51443,43.81162],[7.51426,43.81159],[7.5144,43.81137],[7.51412,43.81131],[7.51435,43.81104],[7.5142,43.81097],[7.51418,43.81085],[7.51453,43.81046],[7.51437,43.81038],[7.51449,43.8099],[7.51492,43.80936],[7.51494,43.80916],[7.51519,43.80892],[7.51505,43.80879],[7.51512,43.80839],[7.51499,43.80833],[7.5149,43.80773],[7.51436,43.80795],[7.51406,43.80787],[7.51411,43.80782],[7.51405,43.80777],[7.51424,43.80756],[7.51431,43.8072],[7.51469,43.80683],[7.5147,43.80665],[7.51487,43.80641],[7.51471,43.80563],[7.51437,43.80505],[7.51445,43.80469],[7.51459,43.80448],[7.51512,43.80403],[7.51532,43.80372],[7.51556,43.8036],[7.5159,43.80318],[7.51634,43.80302],[7.51708,43.8024],[7.51739,43.8023],[7.51755,43.80207],[7.5182,43.80165],[7.5188,43.80109],[7.51894,43.80094],[7.51879,43.8009],[7.5188,43.80064],[7.5196,43.79955],[7.51956,43.79944],[7.51948,43.79941],[7.51951,43.79933],[7.51925,43.79931],[7.51977,43.79895],[7.52031,43.7984],[7.521,43.79797],[7.52221,43.79692],[7.52209,43.79672],[7.52221,43.79663],[7.5222,43.79643],[7.5223,43.79638],[7.52226,43.79633],[7.52249,43.79599],[7.52249,43.7958],[7.52202,43.79576],[7.52201,43.79567],[7.52215,43.79557],[7.52219,43.79541],[7.522,43.79542],[7.52169,43.79516],[7.52186,43.79505],[7.52152,43.79505],[7.52147,43.79493],[7.52136,43.79497],[7.52145,43.79483],[7.52131,43.79478],[7.52099,43.79479],[7.5213,43.79455],[7.52046,43.7937],[7.52022,43.79304],[7.5195,43.79301],[7.51894,43.79249],[7.51861,43.79231],[7.5185,43.79229],[7.51828,43.79237],[7.51838,43.79217],[7.51828,43.7922],[7.51816,43.7921],[7.5182,43.79203],[7.51806,43.79203],[7.51803,43.79187],[7.51788,43.79189],[7.51765,43.79153],[7.51726,43.7914],[7.51712,43.79124],[7.51691,43.79118],[7.51658,43.79089],[7.5165,43.79115],[7.51631,43.79122],[7.51566,43.79129],[7.51554,43.79134],[7.51542,43.79151],[7.5154,43.7914],[7.51549,43.79128],[7.51611,43.79111],[7.51618,43.791],[7.51616,43.79093],[7.5156,43.79052],[7.51557,43.79032],[7.51595,43.79016],[7.5178,43.78996],[7.51734,43.78974],[7.51766,43.78946],[7.51761,43.78913],[7.51796,43.78917],[7.51832,43.78935],[7.5184,43.78932],[7.51811,43.78894],[7.51776,43.78882],[7.51784,43.78867],[7.518,43.78866],[7.51824,43.78844],[7.51816,43.78819],[7.51789,43.78821],[7.51754,43.78834],[7.51733,43.78833],[7.51626,43.78803],[7.51615,43.7879],[7.51634,43.7874],[7.51679,43.78714],[7.51702,43.78713],[7.51698,43.78701],[7.51715,43.78681],[7.51706,43.7867],[7.51738,43.78633],[7.5175,43.78635],[7.51754,43.78621],[7.51779,43.78623],[7.51766,43.78609],[7.51801,43.78611],[7.5181,43.78603],[7.51808,43.78592],[7.51831,43.78584],[7.51839,43.7857],[7.51855,43.78574],[7.51853,43.78547],[7.51766,43.78527]]}},{"type":"Feature","properties":{"name":"PARK CORE BOUNDARY · tick in the evening only · inside = tent 19:00-09:00, 1 h from roads, new spot daily","color":"#5B8A3C","kind":"boundary"},"geometry":{"type":"LineString","coordinates":[[7.48357,44.13371],[7.48341,44.13297],[7.48395,44.13168],[7.48636,44.13009],[7.48779,44.12965],[7.48959,44.12956],[7.49119,44.12897],[7.49354,44.12857],[7.49563,44.1278],[7.49896,44.12699],[7.50003,44.12711],[7.50213,44.12778],[7.50363,44.12763],[7.50441,44.12738],[7.50517,44.12678],[7.50832,44.12575],[7.50933,44.12459],[7.50828,44.12293],[7.50516,44.11939],[7.50324,44.11854],[7.5007,44.11808],[7.49669,44.11858],[7.49486,44.11923],[7.49349,44.11943],[7.49273,44.11928],[7.4916,44.11854],[7.49105,44.11907],[7.49041,44.1189],[7.4904,44.11722],[7.4941,44.11545],[7.49586,44.11293]]}},{"type":"Feature","properties":{"name":"PARK CORE BOUNDARY · tick in the evening only · inside = tent 19:00-09:00, 1 h from roads, new spot daily","color":"#5B8A3C","kind":"boundary"},"geometry":{"type":"LineString","coordinates":[[7.39744,44.07886],[7.39694,44.07884],[7.39569,44.0801],[7.39075,44.07976],[7.38852,44.07855],[7.38513,44.07886],[7.38423,44.07859],[7.38204,44.07729],[7.38039,44.07435]]}},{"type":"Feature","properties":{"name":"PARK CORE BOUNDARY · tick in the evening only · inside = tent 19:00-09:00, 1 h from roads, new spot daily","color":"#5B8A3C","kind":"boundary"},"geometry":{"type":"LineString","coordinates":[[7.13509,44.16424],[7.13387,44.16476],[7.13369,44.16515],[7.13225,44.16613],[7.12779,44.16258],[7.12659,44.16211],[7.12486,44.16089],[7.12266,44.15865],[7.12089,44.1581],[7.12066,44.15745],[7.11884,44.15629],[7.11709,44.15431],[7.11558,44.15405],[7.1141,44.15315],[7.11119,44.15209],[7.11032,44.15103],[7.11036,44.15055],[7.10969,44.15016],[7.10943,44.14972],[7.10772,44.14926],[7.10752,44.14884],[7.10534,44.14869],[7.10452,44.14823],[7.10264,44.14775],[7.1005,44.14792],[7.09825,44.14775],[7.09681,44.14712],[7.09652,44.14748],[7.09696,44.14912],[7.09665,44.15015],[7.09591,44.15103],[7.0944,44.15195],[7.09447,44.15296],[7.09413,44.1537],[7.09199,44.15467],[7.09129,44.15522],[7.08809,44.15353],[7.08722,44.15266],[7.08645,44.15305],[7.08593,44.15295],[7.0847,44.15326],[7.08399,44.15192],[7.08225,44.1513],[7.08162,44.15068],[7.08064,44.15075],[7.07997,44.15038],[7.07899,44.15051],[7.07796,44.15032],[7.07686,44.14961],[7.07574,44.14951],[7.07406,44.14884],[7.07343,44.14826],[7.07046,44.14765],[7.06975,44.1468],[7.06893,44.1463],[7.06387,44.14624],[7.06307,44.14664],[7.06417,44.14692],[7.06456,44.14831],[7.06372,44.14997],[7.06162,44.15049],[7.06146,44.15107],[7.06175,44.15199],[7.06147,44.15264],[7.06026,44.15344],[7.05846,44.15345],[7.05797,44.15434],[7.05747,44.15435],[7.05456,44.15634],[7.05319,44.15763],[7.05184,44.16016],[7.0487,44.16244],[7.04818,44.1625],[7.04661,44.16193],[7.04692,44.16129],[7.04678,44.16048],[7.04749,44.15981],[7.0475,44.15937],[7.04552,44.15851]]}},{"type":"Feature","properties":{"name":"PARK CORE BOUNDARY · tick in the evening only · inside = tent 19:00-09:00, 1 h from roads, new spot daily","color":"#5B8A3C","kind":"boundary"},"geometry":{"type":"LineString","coordinates":[[7.51431,44.04138],[7.51515,44.03947],[7.51494,44.03902],[7.51647,44.03712],[7.51821,44.03601],[7.51793,44.03554],[7.516,44.03505],[7.51416,44.03588],[7.50861,44.03552],[7.50826,44.03526],[7.50835,44.03492],[7.50924,44.03386],[7.51018,44.03323],[7.50919,44.03255],[7.50711,44.03218],[7.50525,44.03126],[7.50333,44.03086],[7.50342,44.0293],[7.50245,44.02866],[7.50141,44.02865],[7.50076,44.0284],[7.50145,44.02783],[7.50272,44.02831],[7.50419,44.02811],[7.50459,44.02771],[7.50712,44.02674],[7.50835,44.02658],[7.50877,44.0263],[7.50943,44.02643],[7.51146,44.02557],[7.51283,44.02527],[7.51337,44.02477],[7.51363,44.02373],[7.51398,44.0234],[7.51334,44.02219],[7.51355,44.0218],[7.51331,44.02007],[7.51164,44.01558],[7.51062,44.01516],[7.51004,44.01447],[7.51031,44.0139],[7.51116,44.01341],[7.51141,44.01213],[7.51096,44.00824],[7.50933,44.00801],[7.50787,44.00717],[7.50586,44.00677],[7.50363,44.00585],[7.50242,44.00582],[7.49961,44.00715],[7.49836,44.00826],[7.49671,44.00827],[7.49566,44.00872],[7.49342,44.0088],[7.4929,44.00911],[7.48936,44.00927],[7.48769,44.01035],[7.48638,44.01069],[7.48597,44.01118],[7.48307,44.01223],[7.48204,44.01167],[7.4802,44.01002],[7.47943,44.00999],[7.4789,44.00843],[7.47929,44.0069],[7.47863,44.00672],[7.47775,44.00683],[7.4768,44.00728],[7.47596,44.00859],[7.47483,44.00868],[7.47408,44.00899],[7.47301,44.00885],[7.46985,44.01008],[7.46921,44.00982],[7.46835,44.00985],[7.46648,44.01056],[7.4654,44.01169],[7.46412,44.01165],[7.46271,44.01229],[7.46186,44.01338],[7.4607,44.01234],[7.46068,44.01125],[7.46259,44.00843],[7.46375,44.00735],[7.46594,44.00677],[7.46699,44.00671],[7.46916,44.00576],[7.47058,44.00554],[7.47135,44.00474],[7.47471,44.0039],[7.475,44.00353],[7.47273,44.00325],[7.47066,43.99934],[7.4715,43.99893],[7.47293,43.99902],[7.47352,43.99846],[7.47459,43.99806],[7.47493,43.99813],[7.47524,43.99887],[7.47687,43.99839],[7.47813,43.99846],[7.47872,43.99916],[7.4794,43.99919],[7.48104,43.99861],[7.48182,43.99747],[7.48067,43.99596],[7.4807,43.99542],[7.48006,43.99477],[7.48027,43.99439],[7.48128,43.99366],[7.48391,43.9935],[7.48452,43.99382],[7.48698,43.99433],[7.48707,43.9931],[7.48757,43.99266],[7.4874,43.99225],[7.48855,43.99177],[7.48913,43.99094]]}},{"type":"Feature","properties":{"name":"PARK CORE BOUNDARY · tick in the evening only · inside = tent 19:00-09:00, 1 h from roads, new spot daily","color":"#5B8A3C","kind":"boundary"},"geometry":{"type":"LineString","coordinates":[[7.09747,44.1286],[7.09789,44.12833],[7.09848,44.12647],[7.09976,44.12595],[7.1003,44.12521],[7.10063,44.12529],[7.10078,44.12568],[7.10116,44.12566],[7.10194,44.1237],[7.10315,44.12233],[7.10598,44.12157],[7.10828,44.12173],[7.11371,44.11957],[7.11728,44.11756],[7.12014,44.1169],[7.12303,44.11682],[7.125,44.11618],[7.1268,44.11599],[7.13102,44.11494],[7.1326,44.1139],[7.13997,44.11057],[7.14124,44.10938],[7.14213,44.10894],[7.14296,44.10971],[7.1444,44.11035],[7.14489,44.11136],[7.14549,44.11147],[7.14586,44.11186],[7.14632,44.11168],[7.14828,44.11234],[7.14839,44.1126],[7.14943,44.11301],[7.15447,44.11],[7.15933,44.11009],[7.16067,44.11107],[7.16101,44.1119],[7.16142,44.1119],[7.16395,44.11164],[7.16597,44.11086],[7.17037,44.11044],[7.17279,44.10966],[7.17533,44.11167],[7.1757,44.11294],[7.1759,44.1143],[7.17552,44.11493],[7.17573,44.11544],[7.17459,44.11698],[7.17453,44.11749],[7.17495,44.11856],[7.17488,44.12024],[7.17521,44.12198],[7.17753,44.12179],[7.1791,44.12079],[7.18564,44.12032],[7.18986,44.12112],[7.19152,44.12174],[7.19262,44.1208],[7.19706,44.11874],[7.19741,44.11861],[7.19892,44.11878],[7.19951,44.11857],[7.20034,44.11725],[7.2015,44.1166],[7.20352,44.11404],[7.20419,44.11401],[7.20844,44.11457],[7.21072,44.11532],[7.21502,44.11599],[7.21746,44.11705],[7.21913,44.11699],[7.2211,44.11813],[7.22146,44.11904],[7.22299,44.11951],[7.22521,44.12277],[7.2259,44.12285],[7.22825,44.12245],[7.23124,44.12247],[7.23213,44.1231],[7.23211,44.12352],[7.23264,44.12421],[7.23377,44.12499],[7.23507,44.12533],[7.23566,44.12528]]}},{"type":"Feature","properties":{"name":"PARK CORE BOUNDARY · tick in the evening only · inside = tent 19:00-09:00, 1 h from roads, new spot daily","color":"#5B8A3C","kind":"boundary"},"geometry":{"type":"LineString","coordinates":[[7.48913,43.99094],[7.48927,43.99046],[7.48776,43.98931],[7.48517,43.98948],[7.48376,43.98909],[7.48259,43.98844],[7.48225,43.98595],[7.48236,43.98441],[7.48022,43.98052],[7.47897,43.97951],[7.47688,43.97888],[7.47643,43.97841],[7.47446,43.97797],[7.47238,43.97948],[7.46971,43.98047],[7.46895,43.98101],[7.468,43.98063],[7.46612,43.98092],[7.46445,43.98061],[7.46449,43.98009],[7.4652,43.98008],[7.46723,43.97941],[7.46759,43.979],[7.46878,43.97845],[7.46921,43.97696],[7.47122,43.97418],[7.47049,43.97377],[7.46886,43.97348],[7.46722,43.97191],[7.46657,43.97094],[7.46437,43.97036],[7.46353,43.9704],[7.46275,43.96983],[7.46184,43.9696],[7.46094,43.96826],[7.46098,43.96655],[7.45995,43.9653],[7.46168,43.96279],[7.46178,43.96161],[7.46115,43.96089],[7.46396,43.96053],[7.46558,43.95969],[7.46707,43.95986],[7.46728,43.95968],[7.47028,43.95947],[7.47164,43.95866],[7.47198,43.9577],[7.47329,43.9582],[7.47398,43.95886],[7.47501,43.95928],[7.47613,43.96013],[7.47818,43.96075],[7.47999,43.96169],[7.47736,43.95883],[7.47643,43.9566],[7.47701,43.95568],[7.47871,43.9547],[7.48012,43.95313],[7.48114,43.95291]]}},{"type":"Feature","properties":{"name":"PARK CORE BOUNDARY · tick in the evening only · inside = tent 19:00-09:00, 1 h from roads, new spot daily","color":"#5B8A3C","kind":"boundary"},"geometry":{"type":"LineString","coordinates":[[7.41581,43.94942],[7.41654,43.94813],[7.41772,43.94738],[7.41738,43.94646],[7.41767,43.94618],[7.41815,43.94624],[7.41879,43.94598],[7.41921,43.94502],[7.41863,43.94458],[7.41749,43.94294],[7.41671,43.94107],[7.41552,43.94049],[7.41404,43.93871],[7.41424,43.93727],[7.41354,43.93661],[7.41334,43.93581],[7.41283,43.93527],[7.41271,43.93364],[7.41111,43.9323],[7.4112,43.93147],[7.41087,43.93113],[7.41091,43.93067],[7.4114,43.92982],[7.41408,43.92897],[7.41555,43.92935],[7.41596,43.92895],[7.4158,43.92722],[7.41695,43.92642],[7.41778,43.92666],[7.41857,43.92621],[7.418,43.92589],[7.41632,43.92559],[7.41528,43.92577],[7.41406,43.92639],[7.41372,43.92644],[7.41338,43.92612],[7.41325,43.92559],[7.41352,43.92518],[7.41533,43.9249],[7.41607,43.92379],[7.41513,43.92336],[7.41387,43.92383],[7.41316,43.92346],[7.41319,43.92307],[7.41407,43.92283],[7.4162,43.92132],[7.41584,43.92027],[7.41631,43.91829],[7.41561,43.91822],[7.41499,43.91873],[7.41347,43.91906],[7.41309,43.91903],[7.41331,43.91838],[7.41311,43.91819],[7.41252,43.91819],[7.41152,43.91868],[7.41088,43.91957],[7.41012,43.91972],[7.40949,43.9207],[7.40893,43.92067],[7.4083,43.9203],[7.40969,43.9186],[7.40957,43.91772],[7.40896,43.9173],[7.40909,43.91709],[7.41041,43.91691],[7.41073,43.91648],[7.41066,43.91569],[7.41146,43.91501],[7.411,43.91465],[7.40944,43.91475],[7.4086,43.9146],[7.40795,43.9142],[7.40788,43.9135],[7.40854,43.9128],[7.40868,43.91183],[7.40909,43.91181],[7.40915,43.91154],[7.40855,43.91076],[7.40839,43.90967],[7.40794,43.90901],[7.408,43.90865],[7.40878,43.90793],[7.40961,43.90744],[7.41318,43.90674],[7.41359,43.90637],[7.41423,43.90701],[7.41467,43.90702],[7.41535,43.90792],[7.41788,43.90816],[7.41897,43.90873],[7.41931,43.90923],[7.42086,43.90975],[7.42186,43.91059],[7.42258,43.91061],[7.42433,43.91205],[7.42483,43.91208],[7.42605,43.91284],[7.42671,43.91282],[7.42808,43.91377],[7.42831,43.91425],[7.43022,43.91481],[7.42959,43.91398],[7.4291,43.91183],[7.4294,43.91157],[7.43131,43.91239],[7.4324,43.91242],[7.43373,43.91146],[7.43682,43.91005],[7.43863,43.90881],[7.43905,43.90824],[7.43901,43.90669],[7.43934,43.90625],[7.44003,43.90623],[7.44059,43.90567],[7.44122,43.90552],[7.44277,43.90659],[7.4428,43.90692],[7.44233,43.90704],[7.44226,43.90753],[7.44338,43.90867],[7.44262,43.90933],[7.44292,43.90965],[7.44242,43.91025],[7.44272,43.91231],[7.44333,43.91339],[7.44385,43.91349],[7.44418,43.91404],[7.44523,43.91449],[7.44507,43.91492],[7.44533,43.91526],[7.44597,43.91502],[7.44625,43.91444],[7.44566,43.91311],[7.4457,43.91237],[7.44818,43.91085],[7.44939,43.91145],[7.45045,43.9113],[7.45095,43.91151],[7.45234,43.91159],[7.45369,43.91325],[7.45405,43.91517],[7.45498,43.915],[7.45591,43.91525],[7.4568,43.91625],[7.45693,43.91685],[7.45773,43.91676]]}},{"type":"Feature","properties":{"name":"PARK CORE BOUNDARY · tick in the evening only · inside = tent 19:00-09:00, 1 h from roads, new spot daily","color":"#5B8A3C","kind":"boundary"},"geometry":{"type":"LineString","coordinates":[[7.40203,44.07777],[7.40242,44.07758],[7.40192,44.07677],[7.40233,44.0754],[7.40123,44.07421],[7.40119,44.07046],[7.3999,44.06864],[7.3922,44.06247],[7.3921,44.06082],[7.39127,44.05813],[7.38528,44.05121],[7.38477,44.04977],[7.38283,44.04697],[7.3825,44.04532],[7.38323,44.04385],[7.384,44.04379],[7.38932,44.04185],[7.39281,44.04151],[7.39329,44.03907],[7.39438,44.03719],[7.39432,44.03445],[7.39501,44.03301],[7.39504,44.03186],[7.39458,44.03093],[7.39474,44.03055],[7.39426,44.02998],[7.39443,44.02943],[7.39318,44.02909],[7.39282,44.0281],[7.3924,44.02784],[7.39117,44.02776],[7.38992,44.02712],[7.38688,44.02673],[7.38525,44.02604],[7.38531,44.02567],[7.38649,44.02528],[7.38716,44.02451],[7.38875,44.02347],[7.39131,44.02222],[7.39454,44.0194],[7.39698,44.01492],[7.39693,44.01425],[7.39784,44.01152],[7.39872,44.01079],[7.39857,44.01008],[7.3993,44.00941],[7.39997,44.00669],[7.40135,44.00622],[7.40228,44.00536],[7.40405,44.00466],[7.40507,44.00474],[7.40552,44.00519],[7.40695,44.00561],[7.40699,44.00516],[7.40785,44.00483],[7.40829,44.00417],[7.40888,44.00166],[7.40864,44.00083],[7.40865,43.99726],[7.40748,43.99517],[7.40941,43.99385],[7.41179,43.99368],[7.41332,43.99283],[7.41624,43.99013],[7.41619,43.98946],[7.41705,43.98738],[7.41685,43.98625],[7.41527,43.98467],[7.41528,43.98378],[7.41423,43.98357],[7.41357,43.98287],[7.41349,43.98182],[7.41306,43.98128],[7.41399,43.98037],[7.41491,43.97995],[7.41714,43.97934],[7.4175,43.97955],[7.41846,43.97935],[7.41886,43.97881],[7.41814,43.97778],[7.41549,43.97705],[7.41399,43.97758],[7.4127,43.97681],[7.41218,43.97621],[7.41277,43.97447],[7.41202,43.97333],[7.41341,43.97056],[7.4153,43.96896],[7.41535,43.96863],[7.41477,43.96837],[7.41477,43.96787],[7.41517,43.96751],[7.4159,43.96739],[7.41615,43.96698],[7.41595,43.9663],[7.4151,43.96582],[7.41495,43.96545],[7.41445,43.96205],[7.41544,43.96006],[7.415,43.95969],[7.41396,43.96014],[7.41317,43.96],[7.41306,43.95968],[7.41345,43.95907],[7.41291,43.9582],[7.41423,43.95739],[7.41277,43.95698],[7.41276,43.95631],[7.41233,43.95595],[7.41218,43.95513],[7.4125,43.95446],[7.41365,43.95385],[7.41398,43.95329],[7.41325,43.95157],[7.41393,43.95132],[7.41468,43.95175],[7.41536,43.95181],[7.41623,43.95132],[7.41581,43.94942]]}},{"type":"Feature","properties":{"name":"PARK CORE BOUNDARY · tick in the evening only · inside = tent 19:00-09:00, 1 h from roads, new spot daily","color":"#5B8A3C","kind":"boundary"},"geometry":{"type":"LineString","coordinates":[[7.49653,44.1129],[7.49617,44.11261],[7.49624,44.11218],[7.49686,44.11141],[7.49749,44.10943],[7.4971,44.1091],[7.49715,44.10864],[7.49652,44.10749],[7.49754,44.10637],[7.49626,44.10373],[7.49657,44.10305],[7.4962,44.10282],[7.49652,44.10189],[7.49564,44.10193],[7.49525,44.10123],[7.49657,44.09957],[7.49552,44.09899],[7.49304,44.09882],[7.48836,44.09713]]}},{"type":"Feature","properties":{"name":"PARK CORE BOUNDARY · tick in the evening only · inside = tent 19:00-09:00, 1 h from roads, new spot daily","color":"#5B8A3C","kind":"boundary"},"geometry":{"type":"LineString","coordinates":[[7.49733,44.09121],[7.49866,44.09138],[7.49998,44.09084],[7.50043,44.09134],[7.50333,44.09099],[7.50637,44.08827],[7.508,44.08634],[7.50862,44.08519],[7.50916,44.08259],[7.50911,44.08074],[7.51204,44.07659],[7.5139,44.07502],[7.51141,44.07515],[7.50936,44.07467],[7.509,44.07485],[7.50739,44.07458],[7.50648,44.07483],[7.50541,44.07607],[7.50502,44.07585],[7.50462,44.07494],[7.50294,44.0737],[7.50127,44.07318],[7.50032,44.07327],[7.49838,44.074],[7.49744,44.07388],[7.49657,44.07409],[7.4949,44.07406],[7.49444,44.07375],[7.49425,44.07291],[7.49366,44.07267],[7.48997,44.07197],[7.48607,44.07071],[7.48519,44.0698],[7.4851,44.06858],[7.48562,44.06815],[7.48641,44.06806],[7.48684,44.06658],[7.4873,44.06641],[7.48783,44.06665],[7.48836,44.06624],[7.49036,44.06373],[7.4929,44.05977],[7.49352,44.0541],[7.49396,44.05307],[7.49549,44.0512],[7.49631,44.05124],[7.49745,44.05167],[7.50101,44.05165],[7.50324,44.05201],[7.50445,44.05178],[7.50529,44.05248],[7.50746,44.05255],[7.51004,44.0522],[7.51169,44.05068],[7.51177,44.04774],[7.51152,44.04663],[7.51373,44.04347],[7.51436,44.04297],[7.51464,44.04183],[7.51431,44.04138]]}},{"type":"Feature","properties":{"name":"PARK CORE BOUNDARY · tick in the evening only · inside = tent 19:00-09:00, 1 h from roads, new spot daily","color":"#5B8A3C","kind":"boundary"},"geometry":{"type":"LineString","coordinates":[[7.23566,44.12528],[7.2364,44.12562],[7.23665,44.12525],[7.23715,44.12545],[7.23726,44.12526],[7.23796,44.12528],[7.23874,44.12503],[7.23949,44.12423],[7.24005,44.12409],[7.24099,44.12427],[7.24221,44.12386],[7.24301,44.12433],[7.24502,44.1243],[7.24728,44.1247],[7.24925,44.12652],[7.25087,44.12725],[7.25184,44.12721],[7.25281,44.12693],[7.2538,44.12692],[7.25533,44.12643],[7.25726,44.12649],[7.2584,44.1257],[7.26051,44.12612],[7.26453,44.12572],[7.26705,44.12473],[7.2677,44.12407],[7.26904,44.12388],[7.27146,44.12237]]}},{"type":"Feature","properties":{"name":"PARK CORE BOUNDARY · tick in the evening only · inside = tent 19:00-09:00, 1 h from roads, new spot daily","color":"#5B8A3C","kind":"boundary"},"geometry":{"type":"LineString","coordinates":[[7.48953,44.09161],[7.49011,44.09163],[7.49076,44.09135],[7.49146,44.09152],[7.49294,44.09139],[7.49328,44.09116],[7.49496,44.09158],[7.49672,44.09154],[7.49707,44.0913]]}},{"type":"Feature","properties":{"name":"PARK CORE BOUNDARY · tick in the evening only · inside = tent 19:00-09:00, 1 h from roads, new spot daily","color":"#5B8A3C","kind":"boundary"},"geometry":{"type":"LineString","coordinates":[[7.48028,44.09085],[7.48037,44.09065]]}},{"type":"Feature","properties":{"name":"PARK CORE BOUNDARY · tick in the evening only · inside = tent 19:00-09:00, 1 h from roads, new spot daily","color":"#5B8A3C","kind":"boundary"},"geometry":{"type":"LineString","coordinates":[[7.48099,44.09025],[7.48291,44.08923],[7.48335,44.08969],[7.48413,44.08983],[7.48492,44.09069],[7.48578,44.09116],[7.48665,44.09124],[7.48768,44.0909],[7.48916,44.0917]]}},{"type":"Feature","properties":{"name":"PARK CORE BOUNDARY · tick in the evening only · inside = tent 19:00-09:00, 1 h from roads, new spot daily","color":"#5B8A3C","kind":"boundary"},"geometry":{"type":"LineString","coordinates":[[7.19359,44.18709],[7.19652,44.18624],[7.19833,44.18634],[7.20049,44.18713],[7.20366,44.18443],[7.2047,44.18233],[7.20459,44.17913],[7.21,44.17674],[7.21069,44.17663],[7.21297,44.17522],[7.21413,44.17512],[7.21458,44.17372],[7.2145,44.17309],[7.21541,44.17219],[7.2159,44.17088],[7.21622,44.17061],[7.21847,44.16994],[7.21885,44.16865],[7.21946,44.16841],[7.22091,44.16828],[7.22469,44.16909],[7.22745,44.16819],[7.22866,44.16839],[7.23029,44.17017],[7.23271,44.17148],[7.23353,44.17357],[7.23347,44.17416],[7.23489,44.1745],[7.23483,44.17532],[7.23506,44.17545],[7.23572,44.17528],[7.23672,44.1744],[7.23794,44.17375],[7.2393,44.17341],[7.24047,44.17349],[7.24177,44.17298],[7.24305,44.17174],[7.24346,44.17164],[7.24336,44.17083],[7.24374,44.17029],[7.24342,44.17004],[7.24346,44.16915],[7.24293,44.16838],[7.24484,44.16602],[7.24517,44.16462],[7.24502,44.16398],[7.24532,44.16349],[7.24637,44.16298],[7.24763,44.16149],[7.24805,44.15968],[7.24886,44.15806],[7.25142,44.15647],[7.25201,44.15583],[7.25447,44.15535],[7.25658,44.15542],[7.25708,44.15507],[7.25915,44.15348],[7.26056,44.15024],[7.26158,44.14941],[7.26252,44.14791]]}},{"type":"Feature","properties":{"name":"PARK CORE BOUNDARY · tick in the evening only · inside = tent 19:00-09:00, 1 h from roads, new spot daily","color":"#5B8A3C","kind":"boundary"},"geometry":{"type":"LineString","coordinates":[[7.42711,44.1131],[7.42876,44.11309],[7.42821,44.11528],[7.42872,44.11664],[7.42666,44.11929],[7.42714,44.12095],[7.42967,44.12442],[7.42977,44.13023],[7.43143,44.13055],[7.43254,44.13036],[7.43385,44.12976],[7.44052,44.1283],[7.44438,44.1284],[7.44591,44.12914],[7.44688,44.12901],[7.44855,44.12921],[7.44966,44.12848],[7.45287,44.12761],[7.45505,44.12775],[7.45809,44.12631],[7.45955,44.12654],[7.46105,44.12764],[7.46686,44.12988],[7.46822,44.13098],[7.46896,44.13118],[7.47141,44.13279],[7.47369,44.13272],[7.47421,44.13346],[7.47588,44.13383],[7.47698,44.13268],[7.47834,44.13312],[7.48016,44.13331],[7.48085,44.13359],[7.48135,44.13415],[7.48223,44.13425],[7.48289,44.13376],[7.48357,44.13371]]}},{"type":"Feature","properties":{"name":"PARK CORE BOUNDARY · tick in the evening only · inside = tent 19:00-09:00, 1 h from roads, new spot daily","color":"#5B8A3C","kind":"boundary"},"geometry":{"type":"LineString","coordinates":[[7.31052,44.14752],[7.31289,44.14639],[7.31328,44.14571],[7.31447,44.14499],[7.31555,44.14469],[7.31716,44.14332],[7.32179,44.14284],[7.32348,44.14357],[7.32455,44.14356],[7.32599,44.14394],[7.32648,44.14438],[7.32751,44.14436],[7.32833,44.14467],[7.32938,44.14458],[7.33246,44.14365],[7.33474,44.1449],[7.33744,44.1449],[7.33933,44.14539],[7.34058,44.14535],[7.3416,44.14599],[7.34233,44.14597],[7.34359,44.14529],[7.34483,44.14508],[7.34586,44.14335],[7.34558,44.14274],[7.34685,44.13968],[7.34648,44.13867],[7.34665,44.13737],[7.34577,44.13641],[7.34704,44.13612],[7.34768,44.13552],[7.34872,44.13272],[7.34984,44.13163],[7.35041,44.13011],[7.35101,44.12956],[7.351,44.12866],[7.35149,44.1282],[7.35157,44.12694],[7.35214,44.126],[7.35292,44.1255],[7.35409,44.12527],[7.35447,44.12483],[7.35547,44.12157],[7.35652,44.1202],[7.35696,44.11696],[7.35802,44.11611],[7.35941,44.11611],[7.36144,44.11646],[7.36461,44.11744],[7.36633,44.11723],[7.36815,44.11648],[7.37144,44.11757],[7.37289,44.11852],[7.37506,44.11898],[7.37589,44.11988],[7.37721,44.12062],[7.38344,44.12286],[7.38414,44.12274],[7.38467,44.12336],[7.38687,44.12417]]}},{"type":"Feature","properties":{"name":"PARK CORE BOUNDARY · tick in the evening only · inside = tent 19:00-09:00, 1 h from roads, new spot daily","color":"#5B8A3C","kind":"boundary"},"geometry":{"type":"LineString","coordinates":[[7.38687,44.12417],[7.38793,44.12405],[7.38846,44.12478],[7.38915,44.12508],[7.38981,44.12501],[7.39076,44.1245],[7.39145,44.12446],[7.39302,44.12528],[7.39514,44.12416],[7.39519,44.12385],[7.3965,44.12361],[7.39928,44.12168],[7.39962,44.12114],[7.40541,44.11814],[7.40699,44.11808],[7.40782,44.11841],[7.40892,44.11954],[7.40968,44.1197],[7.41026,44.11953],[7.41128,44.11961],[7.41344,44.11887],[7.41437,44.11898],[7.41596,44.11822],[7.41571,44.11707],[7.41666,44.11626],[7.4172,44.11617],[7.41811,44.11501],[7.41955,44.11488],[7.4221,44.11288],[7.42487,44.11219],[7.42587,44.11232],[7.42711,44.1131]]}},{"type":"Feature","properties":{"name":"PARK CORE BOUNDARY · tick in the evening only · inside = tent 19:00-09:00, 1 h from roads, new spot daily","color":"#5B8A3C","kind":"boundary"},"geometry":{"type":"LineString","coordinates":[[7.26252,44.14791],[7.26505,44.14801],[7.26969,44.14748],[7.27079,44.14766],[7.27236,44.14748],[7.27401,44.14583],[7.27412,44.1453],[7.27801,44.14345],[7.28029,44.14096],[7.28263,44.14077],[7.28577,44.1423],[7.28648,44.14316],[7.28685,44.14422],[7.28806,44.14516],[7.29174,44.14518],[7.29332,44.14547],[7.29423,44.14504],[7.29538,44.14401],[7.29656,44.1444],[7.29771,44.14433],[7.29914,44.1447],[7.30157,44.14487],[7.30339,44.14617],[7.30794,44.14399],[7.30995,44.14591],[7.31052,44.14752]]}},{"type":"Feature","properties":{"name":"PARK CORE BOUNDARY · tick in the evening only · inside = tent 19:00-09:00, 1 h from roads, new spot daily","color":"#5B8A3C","kind":"boundary"},"geometry":{"type":"LineString","coordinates":[[7.19359,44.18709],[7.19298,44.18479],[7.19334,44.18336],[7.19185,44.18282],[7.19043,44.18198],[7.18717,44.17946]]}},{"type":"Feature","properties":{"name":"PARK CORE BOUNDARY · tick in the evening only · inside = tent 19:00-09:00, 1 h from roads, new spot daily","color":"#5B8A3C","kind":"boundary"},"geometry":{"type":"LineString","coordinates":[[7.18717,44.17946],[7.18531,44.17857],[7.18419,44.17747],[7.18098,44.17578],[7.17875,44.17522],[7.17758,44.17439],[7.17684,44.1735],[7.17567,44.17298],[7.17503,44.17212],[7.17165,44.17175],[7.16903,44.17111],[7.1664,44.16959],[7.1629,44.16973],[7.16014,44.17046],[7.158,44.17164],[7.15575,44.17223],[7.1543,44.17314],[7.15232,44.17324],[7.15083,44.17395],[7.1475,44.17499],[7.14546,44.17433],[7.14427,44.17439],[7.14313,44.1741],[7.14224,44.17359],[7.13857,44.17268],[7.13618,44.17126],[7.13751,44.16881],[7.13717,44.16814],[7.13768,44.16557],[7.13758,44.16529],[7.13509,44.16424]]}},{"type":"Feature","properties":{"name":"PARK CORE BOUNDARY · tick in the evening only · inside = tent 19:00-09:00, 1 h from roads, new spot daily","color":"#5B8A3C","kind":"boundary"},"geometry":{"type":"LineString","coordinates":[[7.48574,44.09595],[7.48564,44.09563],[7.4816,44.09354],[7.48052,44.09177],[7.48028,44.09085]]}},{"type":"Feature","properties":{"name":"PARK CORE BOUNDARY · tick in the evening only · inside = tent 19:00-09:00, 1 h from roads, new spot daily","color":"#5B8A3C","kind":"boundary"},"geometry":{"type":"LineString","coordinates":[[7.39744,44.07886],[7.40135,44.07816],[7.40203,44.07777]]}},{"type":"Feature","properties":{"name":"PARK CORE BOUNDARY · tick in the evening only · inside = tent 19:00-09:00, 1 h from roads, new spot daily","color":"#5B8A3C","kind":"boundary"},"geometry":{"type":"LineString","coordinates":[[7.38039,44.07435],[7.37924,44.07386],[7.37853,44.07375],[7.37789,44.07395],[7.36761,44.07936],[7.36677,44.07939],[7.36594,44.07991],[7.36405,44.07967],[7.36177,44.08104],[7.35995,44.08125],[7.35889,44.08274],[7.35803,44.08304],[7.35787,44.08357],[7.35687,44.08422],[7.35654,44.08516],[7.35554,44.08598],[7.3552,44.08664],[7.35446,44.08689],[7.35253,44.08817],[7.35059,44.08862],[7.34781,44.09034],[7.34656,44.09057],[7.3453,44.08977],[7.34445,44.08969],[7.34354,44.09061],[7.34319,44.09231],[7.34349,44.09322],[7.3435,44.09773],[7.34316,44.09864],[7.34261,44.09896],[7.34117,44.09804],[7.33916,44.09806],[7.33807,44.09937],[7.33737,44.09981],[7.33433,44.10073],[7.33314,44.10136],[7.33157,44.10105],[7.33042,44.10007],[7.32522,44.1031],[7.32131,44.10415],[7.31715,44.10624],[7.31462,44.10902],[7.31201,44.1103],[7.30979,44.11018],[7.3091,44.1105],[7.30852,44.11048],[7.30649,44.11001],[7.30589,44.10956],[7.30277,44.1101],[7.30214,44.11058],[7.30048,44.11115],[7.29898,44.11095],[7.29683,44.11144],[7.29548,44.1121],[7.29484,44.11212],[7.29398,44.11292],[7.29313,44.1132],[7.29311,44.11428],[7.2917,44.11467],[7.29197,44.11543],[7.29117,44.11584],[7.29064,44.11565],[7.2902,44.11606],[7.28913,44.11635],[7.28854,44.11639],[7.28804,44.11518],[7.28678,44.11541],[7.28467,44.11535],[7.28172,44.11601],[7.28027,44.1158],[7.27957,44.11624],[7.27908,44.1171],[7.27852,44.11728],[7.27684,44.11878],[7.27645,44.11886],[7.27628,44.11932],[7.27593,44.11949],[7.27542,44.11934],[7.2751,44.11974],[7.27405,44.12],[7.27146,44.12237]]}},{"type":"Feature","properties":{"name":"PARK CORE BOUNDARY · tick in the evening only · inside = tent 19:00-09:00, 1 h from roads, new spot daily","color":"#5B8A3C","kind":"boundary"},"geometry":{"type":"LineString","coordinates":[[7.48037,44.09065],[7.48099,44.09025]]}},{"type":"Feature","properties":{"name":"PARK CORE BOUNDARY · tick in the evening only · inside = tent 19:00-09:00, 1 h from roads, new spot daily","color":"#5B8A3C","kind":"boundary"},"geometry":{"type":"LineString","coordinates":[[7.48916,44.0917],[7.48953,44.09161]]}},{"type":"Feature","properties":{"name":"PARK CORE BOUNDARY · tick in the evening only · inside = tent 19:00-09:00, 1 h from roads, new spot daily","color":"#5B8A3C","kind":"boundary"},"geometry":{"type":"LineString","coordinates":[[7.48138,43.95283],[7.48198,43.95254],[7.48311,43.95109],[7.48248,43.95094],[7.48204,43.95049],[7.48128,43.95036],[7.48123,43.94905],[7.48149,43.94848],[7.48051,43.94782],[7.48027,43.94737],[7.47896,43.94714],[7.47802,43.94588],[7.4766,43.94548],[7.47535,43.94338],[7.47516,43.94179],[7.47538,43.94113],[7.47608,43.94046],[7.47581,43.93994],[7.47774,43.93874],[7.47887,43.93853],[7.47888,43.93823],[7.47716,43.93787],[7.47674,43.93756],[7.47624,43.9366],[7.47644,43.93585],[7.47619,43.93533],[7.47155,43.93334],[7.46765,43.9327],[7.46706,43.93163],[7.4656,43.93089],[7.46362,43.93123],[7.46259,43.93097],[7.46058,43.93139],[7.4597,43.93226],[7.45934,43.93322],[7.4587,43.93322],[7.45898,43.93227],[7.45887,43.93141],[7.45987,43.92975],[7.46153,43.92907],[7.46229,43.9284],[7.46426,43.92746],[7.46768,43.92694],[7.46811,43.92668],[7.46831,43.92627],[7.46778,43.92525],[7.46798,43.92463],[7.46758,43.92433],[7.46708,43.92311],[7.46764,43.92239],[7.4677,43.92151],[7.46872,43.9219],[7.47161,43.92176],[7.47207,43.92155],[7.47224,43.92117],[7.47348,43.92104],[7.47244,43.9198],[7.47155,43.91929],[7.47108,43.91848],[7.4691,43.91788],[7.46844,43.91553],[7.4679,43.91483],[7.46494,43.91368],[7.46363,43.91376],[7.46274,43.91513],[7.46173,43.91592],[7.4615,43.91706],[7.46117,43.91708],[7.46063,43.91618],[7.45991,43.9157],[7.45926,43.91566],[7.45815,43.91613],[7.45852,43.91664],[7.4583,43.91695],[7.45773,43.91676]]}},{"type":"Feature","properties":{"name":"PARK CORE BOUNDARY · tick in the evening only · inside = tent 19:00-09:00, 1 h from roads, new spot daily","color":"#5B8A3C","kind":"boundary"},"geometry":{"type":"LineString","coordinates":[[7.48114,43.95291],[7.48138,43.95283]]}},{"type":"Feature","properties":{"name":"PARK CORE BOUNDARY · tick in the evening only · inside = tent 19:00-09:00, 1 h from roads, new spot daily","color":"#5B8A3C","kind":"boundary"},"geometry":{"type":"LineString","coordinates":[[7.49707,44.0913],[7.49733,44.09121]]}},{"type":"Feature","properties":{"name":"PARK CORE BOUNDARY · tick in the evening only · inside = tent 19:00-09:00, 1 h from roads, new spot daily","color":"#5B8A3C","kind":"boundary"},"geometry":{"type":"LineString","coordinates":[[7.49586,44.11293],[7.49653,44.1129]]}},{"type":"Feature","properties":{"name":"PARK CORE BOUNDARY · tick in the evening only · inside = tent 19:00-09:00, 1 h from roads, new spot daily","color":"#5B8A3C","kind":"boundary"},"geometry":{"type":"LineString","coordinates":[[7.48836,44.09713],[7.48683,44.0962],[7.48581,44.09602]]}},{"type":"Feature","properties":{"name":"PARK CORE BOUNDARY · tick in the evening only · inside = tent 19:00-09:00, 1 h from roads, new spot daily","color":"#5B8A3C","kind":"boundary"},"geometry":{"type":"LineString","coordinates":[[7.48581,44.09602],[7.48574,44.09595]]}},{"type":"Feature","properties":{"name":"SIDE TRIP · Day 4 afternoon · Mont Bégo 2872 m from Refuge des Merveilles · easy, +750 m, 3.7 km","color":"#D9820B","kind":"side"},"geometry":{"type":"LineString","coordinates":[[7.45182,44.05738],[7.45201,44.05734],[7.45305,44.05752],[7.4536,44.05776],[7.45365,44.05789],[7.45389,44.05803],[7.45379,44.05817],[7.45388,44.0583],[7.45406,44.05829],[7.45415,44.05835],[7.45427,44.05846],[7.45426,44.05863],[7.45442,44.05879],[7.45498,44.05882],[7.45497,44.05907],[7.45521,44.05914],[7.45553,44.05914],[7.45538,44.0593],[7.45539,44.05943],[7.45566,44.05945],[7.4557,44.0595],[7.45573,44.05965],[7.45559,44.05991],[7.45594,44.05994],[7.45478,44.06059],[7.45463,44.06058],[7.45337,44.06109],[7.4529,44.06152],[7.45238,44.06168],[7.45224,44.06167],[7.45234,44.06173],[7.45296,44.06175],[7.45289,44.06179],[7.45297,44.06182],[7.45261,44.06192],[7.45294,44.06199],[7.45318,44.06196],[7.45295,44.06211],[7.4525,44.06219],[7.4526,44.0623],[7.453,44.06239],[7.45241,44.06251],[7.452,44.06243],[7.4517,44.06247],[7.45177,44.06253],[7.45172,44.0626],[7.45084,44.0628],[7.45071,44.0629],[7.45086,44.06296],[7.45054,44.06308],[7.4508,44.06313],[7.45063,44.06321],[7.45092,44.06327],[7.45083,44.06347],[7.45097,44.06352],[7.45123,44.06348],[7.45113,44.06372],[7.45128,44.06374],[7.45153,44.06395],[7.45139,44.0641],[7.45119,44.06415],[7.45107,44.06412],[7.45103,44.06423],[7.4509,44.06416],[7.45093,44.06429],[7.45082,44.06426],[7.45079,44.06445],[7.45049,44.06432],[7.45055,44.06443],[7.45029,44.06437],[7.45072,44.06484],[7.4504,44.0648],[7.45068,44.06518],[7.45028,44.06511],[7.45036,44.06518],[7.45022,44.06518],[7.45033,44.06527],[7.45026,44.0653],[7.45037,44.06534],[7.45017,44.06538],[7.45032,44.06544],[7.45015,44.06555],[7.45032,44.06567],[7.45022,44.06568],[7.45018,44.06579],[7.45023,44.06579],[7.45014,44.06582],[7.45037,44.06583],[7.45003,44.06593],[7.45019,44.06601],[7.44992,44.06617],[7.45015,44.06622],[7.45014,44.06631],[7.45048,44.06632],[7.45099,44.06651],[7.45083,44.0666],[7.45098,44.06665],[7.45062,44.06685],[7.45107,44.06688],[7.45087,44.06694],[7.45095,44.06698],[7.45087,44.06702],[7.45096,44.06705],[7.45085,44.06711],[7.45125,44.06717],[7.45098,44.0673],[7.45149,44.06742],[7.45114,44.0676],[7.45111,44.06767],[7.4513,44.06772],[7.45127,44.06776],[7.4514,44.06782],[7.45174,44.06784],[7.45195,44.06788],[7.45199,44.06796],[7.45224,44.068],[7.45211,44.06807],[7.45231,44.06817],[7.45232,44.06823],[7.45252,44.06825],[7.4525,44.06834],[7.45347,44.06856],[7.45372,44.0687],[7.45395,44.06893],[7.45386,44.06906],[7.45361,44.06913],[7.45358,44.06922],[7.45342,44.06922],[7.45334,44.06929],[7.45282,44.0694],[7.4522,44.0698],[7.45223,44.07001],[7.45216,44.06999],[7.4521,44.07023],[7.45118,44.07117],[7.45103,44.07147],[7.45065,44.07169],[7.45057,44.07185],[7.45022,44.072],[7.45019,44.07211],[7.45004,44.07225],[7.45019,44.0723],[7.45031,44.07251],[7.45028,44.07284],[7.45042,44.07308]]}},{"type":"Feature","properties":{"name":"SIDE TRIP · Day 5 · Cime du Diable 2685 m from Pas du Diable · steep path, +2 h, 1.2 km","color":"#D9820B","kind":"side"},"geometry":{"type":"LineString","coordinates":[[7.4308,44.0475],[7.43039,44.04779],[7.43037,44.04801],[7.43028,44.04809],[7.42897,44.04875],[7.42862,44.04911],[7.42864,44.04928],[7.4281,44.04994],[7.42782,44.05017],[7.42776,44.05013],[7.42759,44.05028],[7.42749,44.05026],[7.4275,44.0504],[7.42737,44.05038],[7.42702,44.05048],[7.42696,44.05033],[7.42676,44.05024],[7.42684,44.05018],[7.42676,44.05014],[7.42684,44.04983],[7.42669,44.04989],[7.42663,44.04984],[7.42645,44.04988],[7.42647,44.04977],[7.42632,44.04983],[7.42619,44.04981],[7.42625,44.04954],[7.426,44.0495],[7.42601,44.04938],[7.42573,44.04938],[7.42567,44.04918],[7.42556,44.04915],[7.42508,44.0491],[7.42483,44.049],[7.42451,44.04899],[7.42437,44.04893],[7.42431,44.04905],[7.42414,44.0489],[7.4241,44.04899],[7.42399,44.0489],[7.42398,44.04902],[7.42394,44.04899],[7.42392,44.04906],[7.42385,44.04901],[7.42384,44.04908],[7.42374,44.04901],[7.42375,44.0491],[7.42364,44.04903],[7.42359,44.04913],[7.42337,44.04897],[7.42331,44.04907],[7.42327,44.04901],[7.42324,44.04906],[7.42296,44.04905],[7.42287,44.04913],[7.42278,44.04912]]}},{"type":"Feature","properties":{"name":"SIDE TRIP · Day 3, spare day only · Mont Colomb 2816 m · scramble, path ends 270 m below top","color":"#D9820B","kind":"side"},"geometry":{"type":"LineString","coordinates":[[7.38577,44.10119],[7.38592,44.1011],[7.38598,44.10117],[7.38602,44.10109],[7.38614,44.10115],[7.38621,44.10104],[7.38627,44.10111],[7.3863,44.10105],[7.38641,44.10108],[7.38654,44.10087],[7.38682,44.10075],[7.38723,44.10031],[7.38804,44.10011],[7.38878,44.10003],[7.38901,44.10012],[7.38961,44.10016],[7.38967,44.10029],[7.38981,44.10031],[7.39067,44.10014],[7.39129,44.09985],[7.39145,44.09979],[7.3915,44.09982],[7.3918,44.09952],[7.3919,44.09959],[7.3921,44.09958],[7.39238,44.09936],[7.39237,44.09924],[7.39255,44.09897],[7.39275,44.09875],[7.39304,44.0986],[7.39316,44.09839],[7.39333,44.09848],[7.39344,44.09843],[7.39356,44.09846],[7.39374,44.09834],[7.39383,44.09842],[7.39434,44.09806],[7.39442,44.09808],[7.39459,44.0979],[7.39475,44.09802],[7.39482,44.09825],[7.39512,44.09857],[7.39535,44.09859],[7.39602,44.09885],[7.39652,44.09885],[7.39678,44.09896],[7.39696,44.09897],[7.39697,44.09922],[7.39672,44.09947],[7.39665,44.09941],[7.39657,44.09946],[7.39644,44.0994],[7.39638,44.09955],[7.39642,44.09997],[7.39632,44.10015],[7.39634,44.10089],[7.39616,44.10102],[7.39589,44.10152],[7.39579,44.10155],[7.39558,44.10204],[7.39538,44.10223],[7.39533,44.1025],[7.39539,44.10279],[7.39493,44.10366],[7.39488,44.10396],[7.39454,44.10375],[7.39447,44.10361],[7.39437,44.10374],[7.3943,44.10379],[7.39426,44.10373],[7.39414,44.10383],[7.39409,44.10409],[7.39417,44.10437],[7.39434,44.10462],[7.39421,44.10459],[7.39425,44.10468],[7.39417,44.10488],[7.3939,44.10503],[7.394,44.10563],[7.39385,44.10588],[7.39384,44.10604],[7.39343,44.1062],[7.39324,44.1065],[7.39323,44.10689],[7.39252,44.10747],[7.39251,44.10778],[7.39195,44.10823]]}},{"type":"Feature","properties":{"name":"VIA FERRATA · Day 1 morning only · Baus de la Frema, La Colmiane · D / TD, 4-5 h + 1 h down","color":"#8E44AD","kind":"ferrata"},"geometry":{"type":"LineString","coordinates":[[7.21593,44.07757],[7.21619,44.07759]]}},{"type":"Feature","properties":{"name":"VIA FERRATA · Day 1 morning only · Baus de la Frema, La Colmiane · D / TD, 4-5 h + 1 h down","color":"#8E44AD","kind":"ferrata"},"geometry":{"type":"LineString","coordinates":[[7.21811,44.07716],[7.21814,44.07722],[7.21794,44.07743],[7.21761,44.07749],[7.21733,44.07742],[7.21712,44.07752]]}},{"type":"Feature","properties":{"name":"VIA FERRATA · Day 1 morning only · Baus de la Frema, La Colmiane · D / TD, 4-5 h + 1 h down","color":"#8E44AD","kind":"ferrata"},"geometry":{"type":"LineString","coordinates":[[7.21588,44.07765],[7.21596,44.07755],[7.21586,44.07743],[7.2158,44.07738],[7.21564,44.07742],[7.21571,44.07753],[7.21593,44.07757]]}},{"type":"Feature","properties":{"name":"VIA FERRATA · Day 1 morning only · Baus de la Frema, La Colmiane · D / TD, 4-5 h + 1 h down","color":"#8E44AD","kind":"ferrata"},"geometry":{"type":"LineString","coordinates":[[7.21619,44.07759],[7.2164,44.0776],[7.21645,44.07769],[7.21635,44.07781]]}},{"type":"Feature","properties":{"name":"VIA FERRATA · Day 1 morning only · Baus de la Frema, La Colmiane · D / TD, 4-5 h + 1 h down","color":"#8E44AD","kind":"ferrata"},"geometry":{"type":"LineString","coordinates":[[7.21685,44.07814],[7.21708,44.07818],[7.21701,44.07828],[7.21704,44.07879],[7.21728,44.07914],[7.21702,44.0795],[7.21687,44.07958]]}},{"type":"Feature","properties":{"name":"VIA FERRATA · Day 1 morning only · Baus de la Frema, La Colmiane · D / TD, 4-5 h + 1 h down","color":"#8E44AD","kind":"ferrata"},"geometry":{"type":"LineString","coordinates":[[7.21708,44.07818],[7.2174,44.07803]]}},{"type":"Feature","properties":{"name":"VIA FERRATA · Day 1 morning only · Baus de la Frema, La Colmiane · D / TD, 4-5 h + 1 h down","color":"#8E44AD","kind":"ferrata"},"geometry":{"type":"LineString","coordinates":[[7.21698,44.07965],[7.21712,44.07971],[7.21717,44.07983],[7.21709,44.08],[7.21719,44.08004],[7.21735,44.07998]]}},{"type":"Feature","properties":{"name":"VIA FERRATA · Day 1 morning only · Baus de la Frema, La Colmiane · D / TD, 4-5 h + 1 h down","color":"#8E44AD","kind":"ferrata"},"geometry":{"type":"LineString","coordinates":[[7.21698,44.07965],[7.21682,44.07992],[7.21647,44.07994],[7.21634,44.08001],[7.21642,44.08013],[7.21631,44.08036],[7.21656,44.08074],[7.21678,44.08082],[7.21696,44.08102],[7.21693,44.08114],[7.21674,44.08123],[7.21677,44.08128],[7.21695,44.08124],[7.21708,44.08112]]}},{"type":"Feature","properties":{"name":"VIA FERRATA · Day 1 morning only · Baus de la Frema, La Colmiane · D / TD, 4-5 h + 1 h down","color":"#8E44AD","kind":"ferrata"},"geometry":{"type":"LineString","coordinates":[[7.21811,44.08049],[7.21807,44.08089],[7.21817,44.081],[7.21814,44.08123],[7.21801,44.08133],[7.21809,44.08148]]}},{"type":"Feature","properties":{"name":"VIA FERRATA · Day 1 morning only · Baus de la Frema, La Colmiane · D / TD, 4-5 h + 1 h down","color":"#8E44AD","kind":"ferrata"},"geometry":{"type":"LineString","coordinates":[[7.21713,44.08158],[7.21671,44.08164],[7.21648,44.08182],[7.21653,44.08227],[7.21661,44.08243],[7.21719,44.08246],[7.21745,44.08241]]}},{"type":"Feature","properties":{"name":"VIA FERRATA · Day 1 morning only · Baus de la Frema, La Colmiane · D / TD, 4-5 h + 1 h down","color":"#8E44AD","kind":"ferrata"},"geometry":{"type":"LineString","coordinates":[[7.21765,44.08245],[7.21761,44.08274],[7.21746,44.08303],[7.21808,44.08352],[7.21827,44.08358],[7.21858,44.08353]]}},{"type":"Feature","properties":{"name":"VIA FERRATA · Day 1 morning only · Baus de la Frema, La Colmiane · D / TD, 4-5 h + 1 h down","color":"#8E44AD","kind":"ferrata"},"geometry":{"type":"LineString","coordinates":[[7.22021,44.08005],[7.22012,44.07989]]}},{"type":"Feature","properties":{"name":"BUS 90 stop · Saint-Dalmas · to/from Nice and La Colmiane","type":"Transport","color":"#5B8A3C"},"geometry":{"type":"Point","coordinates":[7.20097,44.06675]}},{"type":"Feature","properties":{"name":"CAMPSITE · La Ferme Saint-Bernard · Saint-Dalmas · 199 m off track","type":"Campsite","color":"#A0522D"},"geometry":{"type":"Point","coordinates":[7.50188,43.82219]}},{"type":"Feature","properties":{"name":"CAMPSITE · Camping de la ferme · Saint-Dalmas · 571 m off track","type":"Campsite","color":"#A0522D"},"geometry":{"type":"Point","coordinates":[7.19427,44.06506]}},{"type":"Feature","properties":{"name":"SHELTER · Gias du Soleil, natural · near Refuge des Merveilles · 93 m off track","type":"Shelter","color":"#A0522D"},"geometry":{"type":"Point","coordinates":[7.44444,44.06146]}},{"type":"Feature","properties":{"name":"SHELTER · Gias Cabret rock shelter · near Madone de Fenestre · 155 m off track","type":"Shelter","color":"#A0522D"},"geometry":{"type":"Point","coordinates":[7.36738,44.10335]}},{"type":"Feature","properties":{"name":"SHELTER · unnamed · near Sospel · 228 m off track","type":"Shelter","color":"#A0522D"},"geometry":{"type":"Point","coordinates":[7.44516,43.87821]}},{"type":"Feature","properties":{"name":"SHELTER · unnamed · near Col du Berceau · 464 m off track","type":"Shelter","color":"#A0522D"},"geometry":{"type":"Point","coordinates":[7.50204,43.84783]}},{"type":"Feature","properties":{"name":"EMERGENCY 112 · no water Pas du Diable → Camp d'Argent, none Sospel → Menton","type":"Info","color":"#B3701C"},"geometry":{"type":"Point","coordinates":[7.4012,43.989]}},{"type":"Feature","properties":{"name":"ESCAPE · Col de Turini road, 1.5 km below Camp d Argent","type":"Escape","color":"#5B8A3C"},"geometry":{"type":"Point","coordinates":[7.395,43.977]}},{"type":"Feature","properties":{"name":"ESCAPE · Madone de Fenestre road end (summer shuttle to Saint-Martin-Vesubie)","type":"Escape","color":"#5B8A3C"},"geometry":{"type":"Point","coordinates":[7.3564,44.0958]}},{"type":"Feature","properties":{"name":"ESCAPE · Sospel station, Nice-Tende line","type":"Escape","color":"#5B8A3C"},"geometry":{"type":"Point","coordinates":[7.448,43.8765]}},{"type":"Feature","properties":{"name":"NIGHT 0 · Fri 11 Sep · HI hostel Le Chalet, check-in by 19:00, breakfast, phone +33 4 22 49 01 06","type":"Night","color":"#C8322B"},"geometry":{"type":"Point","coordinates":[7.2007,44.0683]}},{"type":"Feature","properties":{"name":"FALLBACK night 1 · Lac Petit, if day 1 runs late, outside park core","type":"Night","color":"#C8322B"},"geometry":{"type":"Point","coordinates":[7.1891,44.113]}},{"type":"Feature","properties":{"name":"PASS · Col du Barn 2452 m - park boundary","type":"Summit","color":"#6B7775"},"geometry":{"type":"Point","coordinates":[7.201,44.1171]}},{"type":"Feature","properties":{"name":"NIGHT 1 · Sat 12 Sep · Le Boreon: tent by the lake or ranch camping, dinner at the hotel-restaurant","type":"Night","color":"#C8322B"},"geometry":{"type":"Point","coordinates":[7.2944,44.1126]}},{"type":"Feature","properties":{"name":"REFUGE · Cougourde 2100 m · open to 19 Sep · not a night on your plan","type":"Lodging","color":"#8B5A2B"},"geometry":{"type":"Point","coordinates":[7.3308,44.1263]}},{"type":"Feature","properties":{"name":"LAKE · Trécolpas · bivouac lake 1 h above Boréon, not on your plan","type":"Campsite","color":"#A0522D"},"geometry":{"type":"Point","coordinates":[7.3404,44.1158]}},{"type":"Feature","properties":{"name":"NIGHT 2 · Sun 13 Sep · Madone de Fenestre: NO camping here, book refuge bed or bivouac at Lac de Fenestre 1 h above","type":"Night","color":"#C8322B"},"geometry":{"type":"Point","coordinates":[7.3564,44.0958]}},{"type":"Feature","properties":{"name":"NIGHT 2 option B · Lac de Fenestre bivouac, legal, 1 h above Madone","type":"Night","color":"#C8322B"},"geometry":{"type":"Point","coordinates":[7.3624,44.1105]}},{"type":"Feature","properties":{"name":"PASS · Pas du Mont Colomb 2548 m - rock step T3","type":"Summit","color":"#6B7775"},"geometry":{"type":"Point","coordinates":[7.3858,44.1012]}},{"type":"Feature","properties":{"name":"NIGHT 3 · Mon 14 Sep · Refuge de Nice, tent by Lac de la Fous","type":"Night","color":"#C8322B"},"geometry":{"type":"Point","coordinates":[7.394,44.089]}},{"type":"Feature","properties":{"name":"PASS · Baisse du Basto 2693 m - high point","type":"Summit","color":"#6B7775"},"geometry":{"type":"Point","coordinates":[7.4276,44.0967]}},{"type":"Feature","properties":{"name":"NIGHT 4 · Tue 15 Sep · Refuge des Merveilles, tent on marked area behind refuge ONLY","type":"Night","color":"#C8322B"},"geometry":{"type":"Point","coordinates":[7.4518,44.0574]}},{"type":"Feature","properties":{"name":"PASS · Pas du Diable 2436 m - last water for 6 h","type":"Summit","color":"#6B7775"},"geometry":{"type":"Point","coordinates":[7.4308,44.0475]}},{"type":"Feature","properties":{"name":"PASS · Baisse de Saint-Veran 1836 m - fort","type":"Summit","color":"#6B7775"},"geometry":{"type":"Point","coordinates":[7.4219,44.0168]}},{"type":"Feature","properties":{"name":"NIGHT 5 · Wed 16 Sep · Camp d'Argent, L'Estive gite, dinner, open to 1 Oct","type":"Night","color":"#C8322B"},"geometry":{"type":"Point","coordinates":[7.4012,43.989]}},{"type":"Feature","properties":{"name":"NIGHT 6 · Thu 17 Sep · Sospel, camping Sainte-Madeleine, shops, station","type":"Night","color":"#C8322B"},"geometry":{"type":"Point","coordinates":[7.449,43.878]}},{"type":"Feature","properties":{"name":"PASS · Col du Berceau 1090 m - steep loose descent","type":"Summit","color":"#6B7775"},"geometry":{"type":"Point","coordinates":[7.513,43.815]}},{"type":"Feature","properties":{"name":"FINISH · Fri 18 Sep · Menton, train to Nice every 20-30 min","type":"Flag","color":"#C8322B"},"geometry":{"type":"Point","coordinates":[7.5,43.775]}},{"type":"Feature","properties":{"name":"WATER · spring (untreated) · Refuge des Merveilles","type":"Water","color":"#2C6A8A"},"geometry":{"type":"Point","coordinates":[7.44569,44.05703]}},{"type":"Feature","properties":{"name":"WATER · spring (untreated) · Pas du Diable","type":"Water","color":"#2C6A8A"},"geometry":{"type":"Point","coordinates":[7.43564,44.05081]}},{"type":"Feature","properties":{"name":"WATER · spring (drinking) · Lac Petit · 126 m off track","type":"Water","color":"#2C6A8A"},"geometry":{"type":"Point","coordinates":[7.19566,44.09138]}},{"type":"Feature","properties":{"name":"WATER · tap · Sospel","type":"Water","color":"#2C6A8A"},"geometry":{"type":"Point","coordinates":[7.44912,43.87779]}},{"type":"Feature","properties":{"name":"WATER · tap · Sospel","type":"Water","color":"#2C6A8A"},"geometry":{"type":"Point","coordinates":[7.4769,43.86261]}},{"type":"Feature","properties":{"name":"WATER · tap · Madone de Fenestre","type":"Water","color":"#2C6A8A"},"geometry":{"type":"Point","coordinates":[7.35673,44.09571]}},{"type":"Feature","properties":{"name":"WATER · tap - fontaine · Saint-Dalmas","type":"Water","color":"#2C6A8A"},"geometry":{"type":"Point","coordinates":[7.20229,44.07262]}},{"type":"Feature","properties":{"name":"WATER · tap · Saint-Dalmas","type":"Water","color":"#2C6A8A"},"geometry":{"type":"Point","coordinates":[7.2008,44.06673]}},{"type":"Feature","properties":{"name":"WATER · tap - Water present on 01/09/2023 · Camp d'Argent","type":"Water","color":"#2C6A8A"},"geometry":{"type":"Point","coordinates":[7.43262,43.98719]}},{"type":"Feature","properties":{"name":"WATER · tap · Sospel","type":"Water","color":"#2C6A8A"},"geometry":{"type":"Point","coordinates":[7.45147,43.87691]}},{"type":"Feature","properties":{"name":"WATER · tap · Salèse valley / Erps dairy","type":"Water","color":"#2C6A8A"},"geometry":{"type":"Point","coordinates":[7.24185,44.13486]}},{"type":"Feature","properties":{"name":"WATER · tap · Refuge des Merveilles","type":"Water","color":"#2C6A8A"},"geometry":{"type":"Point","coordinates":[7.44553,44.05711]}},{"type":"Feature","properties":{"name":"WATER · tap · Refuge de Nice","type":"Water","color":"#2C6A8A"},"geometry":{"type":"Point","coordinates":[7.4003,44.10432]}},{"type":"Feature","properties":{"name":"WATER · tap · Refuge de la Cougourde","type":"Water","color":"#2C6A8A"},"geometry":{"type":"Point","coordinates":[7.33086,44.12621]}},{"type":"Feature","properties":{"name":"WATER · tap · Refuge des Merveilles · 64 m off track","type":"Water","color":"#2C6A8A"},"geometry":{"type":"Point","coordinates":[7.45159,44.05735]}},{"type":"Feature","properties":{"name":"WATER · tap · Sospel · 77 m off track","type":"Water","color":"#2C6A8A"},"geometry":{"type":"Point","coordinates":[7.44987,43.87879]}},{"type":"Feature","properties":{"name":"WATER · tap · Sospel · 80 m off track","type":"Water","color":"#2C6A8A"},"geometry":{"type":"Point","coordinates":[7.44683,43.87878]}},{"type":"Feature","properties":{"name":"WATER · tap - fontaine · Saint-Dalmas · 147 m off track","type":"Water","color":"#2C6A8A"},"geometry":{"type":"Point","coordinates":[7.20283,44.0666]}},{"type":"Feature","properties":{"name":"WATER · tap · Sospel · 180 m off track","type":"Water","color":"#2C6A8A"},"geometry":{"type":"Point","coordinates":[7.44779,43.87642]}},{"type":"Feature","properties":{"name":"WATER · tap · Sospel · 215 m off track","type":"Water","color":"#2C6A8A"},"geometry":{"type":"Point","coordinates":[7.44533,43.87822]}},{"type":"Feature","properties":{"name":"WATER · tap · Menton · 224 m off track","type":"Water","color":"#2C6A8A"},"geometry":{"type":"Point","coordinates":[7.52119,43.78483]}},{"type":"Feature","properties":{"name":"WATER · tap · Le Boréon · 293 m off track","type":"Water","color":"#2C6A8A"},"geometry":{"type":"Point","coordinates":[7.30683,44.10927]}},{"type":"Feature","properties":{"name":"SKIP · Cime du Gélas / Monte Gelàs 3143 m - AD, rockfall when dry, NOT a September objective","type":"Info","color":"#B3701C"},"geometry":{"type":"Point","coordinates":[7.38419,44.12275]}},{"type":"Feature","properties":{"name":"SUMMIT side trip · Mont Bégo 2872 m","type":"SideTrip","color":"#D9820B"},"geometry":{"type":"Point","coordinates":[7.45042,44.07308]}},{"type":"Feature","properties":{"name":"SUMMIT side trip · Cime du Diable 2685 m","type":"SideTrip","color":"#D9820B"},"geometry":{"type":"Point","coordinates":[7.42278,44.04912]}},{"type":"Feature","properties":{"name":"SUMMIT side trip · Mont Colomb 2816 m","type":"SideTrip","color":"#D9820B"},"geometry":{"type":"Point","coordinates":[7.38863,44.10765]}},{"type":"Feature","properties":{"name":"VIA FERRATA start · Baus de la Frema · 6 EUR at the lift office, kit 21 EUR, book 24 h ahead","type":"ViaFerrata","color":"#8E44AD"},"geometry":{"type":"Point","coordinates":[7.21593,44.07757]}},{"type":"Feature","properties":{"name":"VIA FERRATA top · Baus de la Frema 2246 m","type":"SideTrip","color":"#D9820B"},"geometry":{"type":"Point","coordinates":[7.21892,44.08384]}}]}